% program   : RTKPOST demo5 b34h
% inp file  : D:\AAE4203_Laboratory\Data\lab_data.obs
% inp file  : D:\AAE4203_Laboratory\Data\lab_data.nav
% obs start : 2025/10/27 02:13:37.0 GPST (week2390  94417.0s)
% obs end   : 2025/10/27 02:17:41.0 GPST (week2390  94661.0s)
% pos mode  : Single
% elev mask : 15.0 deg
% ionos opt : Broadcast
% tropo opt : Saastamoinen
% ephemeris : Broadcast
% navi sys  : GPS GLONASS Galileo QZSS BDS
%
% (lat/lon/height=WGS84/ellipsoidal,Q=1:fix,2:float,3:sbas,4:dgps,5:single,6:ppp,ns=# of satellites)
%  GPST                  latitude(deg) longitude(deg)  height(m)   Q  ns   sdn(m)   sde(m)   sdu(m)  sdne(m)  sdeu(m)  sdun(m) age(s)  ratio    vn(m/s)    ve(m/s)    vu(m/s)      sdvn     sdve     sdvu    sdvne    sdveu    sdvun
