<?xml version="1.0" encoding="UTF-8"?>
<kml xmlns="http://earth.google.com/kml/2.1">
<Document>
<Style id="P0">
  <IconStyle>
    <color>ffffffff</color>
    <scale>0.3</scale>
    <Icon><href>http://maps.google.com/mapfiles/kml/pal2/icon18.png</href></Icon>
  </IconStyle>
</Style>
<Style id="P1">
  <IconStyle>
    <color>ff008800</color>
    <scale>0.2</scale>
    <Icon><href>http://maps.google.com/mapfiles/kml/pal2/icon18.png</href></Icon>
  </IconStyle>
</Style>
<Style id="P2">
  <IconStyle>
    <color>ff00aaff</color>
    <scale>0.2</scale>
    <Icon><href>http://maps.google.com/mapfiles/kml/pal2/icon18.png</href></Icon>
  </IconStyle>
</Style>
<Style id="P3">
  <IconStyle>
    <color>ff0000ff</color>
    <scale>0.2</scale>
    <Icon><href>http://maps.google.com/mapfiles/kml/pal2/icon18.png</href></Icon>
  </IconStyle>
</Style>
<Style id="P4">
  <IconStyle>
    <color>ff00ffff</color>
    <scale>0.2</scale>
    <Icon><href>http://maps.google.com/mapfiles/kml/pal2/icon18.png</href></Icon>
  </IconStyle>
</Style>
<Style id="P5">
  <IconStyle>
    <color>ffff00ff</color>
    <scale>0.2</scale>
    <Icon><href>http://maps.google.com/mapfiles/kml/pal2/icon18.png</href></Icon>
  </IconStyle>
</Style>
<Placemark>
<name>Rover Track</name>
<Style>
<LineStyle>
<color>ff00ffff</color>
</LineStyle>
</Style>
<LineString>
<coordinates>
114.180127079,22.305678907,0.000
114.180122298,22.305686797,0.000
114.180114604,22.305693733,0.000
114.180113651,22.305694349,0.000
114.180137379,22.305682818,0.000
114.180130050,22.305686728,0.000
114.180146113,22.305680343,0.000
114.180158982,22.305673439,0.000
114.180132762,22.305683092,0.000
114.180133641,22.305672023,0.000
114.180113094,22.305673484,0.000
114.180100998,22.305674769,0.000
114.180101251,22.305681876,0.000
114.180106375,22.305684426,0.000
114.180108030,22.305685581,0.000
114.180110424,22.305683689,0.000
114.180106116,22.305689410,0.000
114.180094185,22.305697796,0.000
114.180071333,22.305710276,0.000
114.180076191,22.305710400,0.000
114.180075624,22.305705495,0.000
114.180085717,22.305703369,0.000
114.180085209,22.305722313,0.000
114.180103510,22.305704395,0.000
114.180098764,22.305725362,0.000
114.180168239,22.305717424,0.000
114.180172215,22.305722192,0.000
114.180196600,22.305745236,0.000
114.180174639,22.305740548,0.000
114.180176438,22.305724412,0.000
114.180188556,22.305726696,0.000
114.180205203,22.305732694,0.000
114.180183983,22.305739316,0.000
114.180160516,22.305756326,0.000
114.180181132,22.305762960,0.000
114.180157370,22.305768425,0.000
114.180150875,22.305770046,0.000
114.180150223,22.305777733,0.000
114.180143725,22.305785369,0.000
114.180169840,22.305791257,0.000
114.180175157,22.305793736,0.000
114.180182014,22.305795722,0.000
114.180194186,22.305798704,0.000
114.180197123,22.305804743,0.000
114.180196179,22.305809250,0.000
114.180192010,22.305812854,0.000
114.180188364,22.305820280,0.000
114.180195304,22.305826378,0.000
114.180201639,22.305824907,0.000
114.180209575,22.305827046,0.000
114.180209489,22.305827787,0.000
114.180228667,22.305826257,0.000
114.180241342,22.305828546,0.000
114.180238431,22.305820933,0.000
114.180228039,22.305821142,0.000
114.180233583,22.305817070,0.000
114.180248593,22.305824701,0.000
114.180253945,22.305822682,0.000
114.180241641,22.305802945,0.000
114.180270486,22.305793928,0.000
114.180291010,22.305814614,0.000
114.180254610,22.305781535,0.000
114.180238943,22.305787750,0.000
114.180216107,22.305788259,0.000
114.180014180,22.305655450,0.000
114.180123786,22.305753495,0.000
114.180140681,22.305751009,0.000
114.180155881,22.305746415,0.000
114.180150596,22.305750452,0.000
114.180120385,22.305745824,0.000
114.180101902,22.305731754,0.000
114.180091863,22.305725390,0.000
114.180096526,22.305714699,0.000
114.180082616,22.305703489,0.000
114.180093976,22.305693259,0.000
114.180115083,22.305672116,0.000
114.180310694,22.305703836,0.000
114.180303251,22.305688590,0.000
114.180050141,22.305648541,0.000
114.180205788,22.305688800,0.000
114.180262535,22.305698108,0.000
114.180034958,22.305666913,0.000
114.180019369,22.305647271,0.000
114.180257554,22.305706987,0.000
114.180209273,22.305723527,0.000
114.180265469,22.305712086,0.000
114.180262571,22.305719981,0.000
114.180254435,22.305720543,0.000
114.180183096,22.305726235,0.000
114.180200923,22.305715723,0.000
114.180013493,22.305664817,0.000
114.180217435,22.305714073,0.000
114.180230962,22.305718582,0.000
114.180194967,22.305710950,0.000
114.180103476,22.305631169,0.000
114.180153651,22.305620062,0.000
114.180240570,22.305691650,0.000
114.180005817,22.305559008,0.000
114.180320178,22.305668337,0.000
114.180316329,22.305682388,0.000
114.180290803,22.305681480,0.000
114.180074173,22.305598050,0.000
114.180205076,22.305680891,0.000
114.180303241,22.305687955,0.000
114.180171725,22.305661616,0.000
114.180215595,22.305659588,0.000
114.180190973,22.305655110,0.000
114.180137794,22.305640965,0.000
114.180162736,22.305649580,0.000
114.180212755,22.305669269,0.000
114.180236419,22.305674319,0.000
114.179948257,22.305618221,0.000
114.179934972,22.305613953,0.000
114.180213865,22.305663002,0.000
114.179938488,22.305610417,0.000
114.180197627,22.305657427,0.000
114.180199233,22.305655608,0.000
114.179930835,22.305595231,0.000
114.180184721,22.305647817,0.000
114.180181009,22.305643570,0.000
114.180163536,22.305636244,0.000
114.180153544,22.305631569,0.000
114.180155130,22.305629353,0.000
114.180056319,22.305543255,0.000
114.180037048,22.305526080,0.000
114.180116593,22.305616161,0.000
114.180031994,22.305534590,0.000
114.180098754,22.305609010,0.000
114.180025967,22.305542825,0.000
114.179984715,22.305523432,0.000
114.180013853,22.305563022,0.000
114.180061128,22.305601403,0.000
114.180002580,22.305563063,0.000
114.180046960,22.305605188,0.000
114.180040556,22.305605333,0.000
114.180019537,22.305585856,0.000
114.179982949,22.305575882,0.000
114.179980440,22.305583235,0.000
114.179977790,22.305593654,0.000
114.179967457,22.305589260,0.000
114.179972818,22.305595320,0.000
114.179973256,22.305611269,0.000
114.179983478,22.305632560,0.000
114.180014792,22.305639539,0.000
114.180016734,22.305653045,0.000
114.180009372,22.305659229,0.000
114.180026628,22.305663562,0.000
114.180050216,22.305651396,0.000
114.180058970,22.305663902,0.000
114.180079754,22.305670834,0.000
114.180071723,22.305684007,0.000
114.180123401,22.305693566,0.000
114.180132594,22.305700719,0.000
114.180140069,22.305726933,0.000
114.180163659,22.305733398,0.000
114.180176760,22.305741070,0.000
114.180180584,22.305747286,0.000
114.180184251,22.305750142,0.000
114.180179114,22.305760825,0.000
114.180177398,22.305760052,0.000
114.180124632,22.305735833,0.000
114.180180906,22.305754003,0.000
114.180190435,22.305762623,0.000
114.180181871,22.305768908,0.000
114.180213668,22.305761016,0.000
114.180166094,22.305770111,0.000
114.180152302,22.305764092,0.000
114.180174076,22.305767144,0.000
114.180174361,22.305783137,0.000
114.180185626,22.305790580,0.000
114.180173142,22.305792637,0.000
114.180193874,22.305794464,0.000
114.180177990,22.305799969,0.000
114.180192820,22.305802340,0.000
114.180192556,22.305811282,0.000
114.180200246,22.305818966,0.000
114.180212121,22.305820950,0.000
114.180213185,22.305820826,0.000
114.180217549,22.305828034,0.000
114.180215211,22.305826975,0.000
114.180232988,22.305828898,0.000
114.180241200,22.305823482,0.000
114.180246948,22.305815463,0.000
114.180242158,22.305808846,0.000
114.180254424,22.305803741,0.000
114.180265862,22.305789366,0.000
114.180254416,22.305785254,0.000
114.180253432,22.305778945,0.000
114.180241462,22.305778448,0.000
114.180225426,22.305771614,0.000
114.180215078,22.305765688,0.000
114.180217166,22.305769068,0.000
114.180193871,22.305759190,0.000
114.180187046,22.305740650,0.000
114.180215184,22.305731516,0.000
114.180185756,22.305726759,0.000
114.180176647,22.305720418,0.000
114.180186839,22.305701917,0.000
114.180176941,22.305690532,0.000
114.180174405,22.305672154,0.000
114.179963062,22.305636965,0.000
114.179978476,22.305653293,0.000
114.180008533,22.305641431,0.000
114.180215863,22.305650704,0.000
114.180211440,22.305642884,0.000
114.180156880,22.305633055,0.000
114.180030721,22.305617710,0.000
114.180155612,22.305638392,0.000
114.180010168,22.305606259,0.000
114.180211135,22.305627504,0.000
114.180162627,22.305623681,0.000
114.180198914,22.305624204,0.000
114.180199127,22.305623197,0.000
114.180141659,22.305610799,0.000
114.180188266,22.305586871,0.000
114.180123555,22.305590136,0.000
114.180036542,22.305585230,0.000
114.180097198,22.305594706,0.000
114.180121858,22.305600950,0.000
114.180145232,22.305616421,0.000
114.180133106,22.305619350,0.000
114.180148183,22.305615931,0.000
114.180146053,22.305617126,0.000
114.180130094,22.305613764,0.000
114.180131771,22.305612648,0.000
114.180132670,22.305608044,0.000
114.180131063,22.305607852,0.000
114.180130548,22.305607324,0.000
114.179892478,22.305560741,0.000
114.179888952,22.305558994,0.000
114.180130314,22.305600519,0.000
114.180116650,22.305596471,0.000
114.180104454,22.305592808,0.000
114.180101962,22.305591948,0.000
114.180088427,22.305584221,0.000
114.180066604,22.305573063,0.000
114.180052454,22.305565159,0.000
114.180045899,22.305568717,0.000
114.180034956,22.305566588,0.000
114.180040718,22.305565914,0.000
114.180037976,22.305563955,0.000
114.180026439,22.305564230,0.000
114.180006860,22.305567771,0.000
114.179995352,22.305567265,0.000
114.179999090,22.305574112,0.000
</coordinates>
</LineString>
</Placemark>
<Folder>
  <name>Rover Position</name>
<Placemark>
<styleUrl>#P3</styleUrl>
<Point>
<coordinates>114.180127079,22.305678907,0.000</coordinates>
</Point>
</Placemark>
<Placemark>
<styleUrl>#P3</styleUrl>
<Point>
<coordinates>114.180122298,22.305686797,0.000</coordinates>
</Point>
</Placemark>
<Placemark>
<styleUrl>#P3</styleUrl>
<Point>
<coordinates>114.180114604,22.305693733,0.000</coordinates>
</Point>
</Placemark>
<Placemark>
<styleUrl>#P3</styleUrl>
<Point>
<coordinates>114.180113651,22.305694349,0.000</coordinates>
</Point>
</Placemark>
<Placemark>
<styleUrl>#P3</styleUrl>
<Point>
<coordinates>114.180137379,22.305682818,0.000</coordinates>
</Point>
</Placemark>
<Placemark>
<styleUrl>#P3</styleUrl>
<Point>
<coordinates>114.180130050,22.305686728,0.000</coordinates>
</Point>
</Placemark>
<Placemark>
<styleUrl>#P3</styleUrl>
<Point>
<coordinates>114.180146113,22.305680343,0.000</coordinates>
</Point>
</Placemark>
<Placemark>
<styleUrl>#P3</styleUrl>
<Point>
<coordinates>114.180158982,22.305673439,0.000</coordinates>
</Point>
</Placemark>
<Placemark>
<styleUrl>#P3</styleUrl>
<Point>
<coordinates>114.180132762,22.305683092,0.000</coordinates>
</Point>
</Placemark>
<Placemark>
<styleUrl>#P3</styleUrl>
<Point>
<coordinates>114.180133641,22.305672023,0.000</coordinates>
</Point>
</Placemark>
<Placemark>
<styleUrl>#P3</styleUrl>
<Point>
<coordinates>114.180113094,22.305673484,0.000</coordinates>
</Point>
</Placemark>
<Placemark>
<styleUrl>#P3</styleUrl>
<Point>
<coordinates>114.180100998,22.305674769,0.000</coordinates>
</Point>
</Placemark>
<Placemark>
<styleUrl>#P3</styleUrl>
<Point>
<coordinates>114.180101251,22.305681876,0.000</coordinates>
</Point>
</Placemark>
<Placemark>
<styleUrl>#P3</styleUrl>
<Point>
<coordinates>114.180106375,22.305684426,0.000</coordinates>
</Point>
</Placemark>
<Placemark>
<styleUrl>#P3</styleUrl>
<Point>
<coordinates>114.180108030,22.305685581,0.000</coordinates>
</Point>
</Placemark>
<Placemark>
<styleUrl>#P3</styleUrl>
<Point>
<coordinates>114.180110424,22.305683689,0.000</coordinates>
</Point>
</Placemark>
<Placemark>
<styleUrl>#P3</styleUrl>
<Point>
<coordinates>114.180106116,22.305689410,0.000</coordinates>
</Point>
</Placemark>
<Placemark>
<styleUrl>#P3</styleUrl>
<Point>
<coordinates>114.180094185,22.305697796,0.000</coordinates>
</Point>
</Placemark>
<Placemark>
<styleUrl>#P3</styleUrl>
<Point>
<coordinates>114.180071333,22.305710276,0.000</coordinates>
</Point>
</Placemark>
<Placemark>
<styleUrl>#P3</styleUrl>
<Point>
<coordinates>114.180076191,22.305710400,0.000</coordinates>
</Point>
</Placemark>
<Placemark>
<styleUrl>#P3</styleUrl>
<Point>
<coordinates>114.180075624,22.305705495,0.000</coordinates>
</Point>
</Placemark>
<Placemark>
<styleUrl>#P3</styleUrl>
<Point>
<coordinates>114.180085717,22.305703369,0.000</coordinates>
</Point>
</Placemark>
<Placemark>
<styleUrl>#P3</styleUrl>
<Point>
<coordinates>114.180085209,22.305722313,0.000</coordinates>
</Point>
</Placemark>
<Placemark>
<styleUrl>#P3</styleUrl>
<Point>
<coordinates>114.180103510,22.305704395,0.000</coordinates>
</Point>
</Placemark>
<Placemark>
<styleUrl>#P3</styleUrl>
<Point>
<coordinates>114.180098764,22.305725362,0.000</coordinates>
</Point>
</Placemark>
<Placemark>
<styleUrl>#P3</styleUrl>
<Point>
<coordinates>114.180168239,22.305717424,0.000</coordinates>
</Point>
</Placemark>
<Placemark>
<styleUrl>#P3</styleUrl>
<Point>
<coordinates>114.180172215,22.305722192,0.000</coordinates>
</Point>
</Placemark>
<Placemark>
<styleUrl>#P3</styleUrl>
<Point>
<coordinates>114.180196600,22.305745236,0.000</coordinates>
</Point>
</Placemark>
<Placemark>
<styleUrl>#P3</styleUrl>
<Point>
<coordinates>114.180174639,22.305740548,0.000</coordinates>
</Point>
</Placemark>
<Placemark>
<styleUrl>#P3</styleUrl>
<Point>
<coordinates>114.180176438,22.305724412,0.000</coordinates>
</Point>
</Placemark>
<Placemark>
<styleUrl>#P3</styleUrl>
<Point>
<coordinates>114.180188556,22.305726696,0.000</coordinates>
</Point>
</Placemark>
<Placemark>
<styleUrl>#P3</styleUrl>
<Point>
<coordinates>114.180205203,22.305732694,0.000</coordinates>
</Point>
</Placemark>
<Placemark>
<styleUrl>#P3</styleUrl>
<Point>
<coordinates>114.180183983,22.305739316,0.000</coordinates>
</Point>
</Placemark>
<Placemark>
<styleUrl>#P3</styleUrl>
<Point>
<coordinates>114.180160516,22.305756326,0.000</coordinates>
</Point>
</Placemark>
<Placemark>
<styleUrl>#P3</styleUrl>
<Point>
<coordinates>114.180181132,22.305762960,0.000</coordinates>
</Point>
</Placemark>
<Placemark>
<styleUrl>#P3</styleUrl>
<Point>
<coordinates>114.180157370,22.305768425,0.000</coordinates>
</Point>
</Placemark>
<Placemark>
<styleUrl>#P3</styleUrl>
<Point>
<coordinates>114.180150875,22.305770046,0.000</coordinates>
</Point>
</Placemark>
<Placemark>
<styleUrl>#P3</styleUrl>
<Point>
<coordinates>114.180150223,22.305777733,0.000</coordinates>
</Point>
</Placemark>
<Placemark>
<styleUrl>#P3</styleUrl>
<Point>
<coordinates>114.180143725,22.305785369,0.000</coordinates>
</Point>
</Placemark>
<Placemark>
<styleUrl>#P3</styleUrl>
<Point>
<coordinates>114.180169840,22.305791257,0.000</coordinates>
</Point>
</Placemark>
<Placemark>
<styleUrl>#P3</styleUrl>
<Point>
<coordinates>114.180175157,22.305793736,0.000</coordinates>
</Point>
</Placemark>
<Placemark>
<styleUrl>#P3</styleUrl>
<Point>
<coordinates>114.180182014,22.305795722,0.000</coordinates>
</Point>
</Placemark>
<Placemark>
<styleUrl>#P3</styleUrl>
<Point>
<coordinates>114.180194186,22.305798704,0.000</coordinates>
</Point>
</Placemark>
<Placemark>
<styleUrl>#P3</styleUrl>
<Point>
<coordinates>114.180197123,22.305804743,0.000</coordinates>
</Point>
</Placemark>
<Placemark>
<styleUrl>#P3</styleUrl>
<Point>
<coordinates>114.180196179,22.305809250,0.000</coordinates>
</Point>
</Placemark>
<Placemark>
<styleUrl>#P3</styleUrl>
<Point>
<coordinates>114.180192010,22.305812854,0.000</coordinates>
</Point>
</Placemark>
<Placemark>
<styleUrl>#P3</styleUrl>
<Point>
<coordinates>114.180188364,22.305820280,0.000</coordinates>
</Point>
</Placemark>
<Placemark>
<styleUrl>#P3</styleUrl>
<Point>
<coordinates>114.180195304,22.305826378,0.000</coordinates>
</Point>
</Placemark>
<Placemark>
<styleUrl>#P3</styleUrl>
<Point>
<coordinates>114.180201639,22.305824907,0.000</coordinates>
</Point>
</Placemark>
<Placemark>
<styleUrl>#P3</styleUrl>
<Point>
<coordinates>114.180209575,22.305827046,0.000</coordinates>
</Point>
</Placemark>
<Placemark>
<styleUrl>#P3</styleUrl>
<Point>
<coordinates>114.180209489,22.305827787,0.000</coordinates>
</Point>
</Placemark>
<Placemark>
<styleUrl>#P3</styleUrl>
<Point>
<coordinates>114.180228667,22.305826257,0.000</coordinates>
</Point>
</Placemark>
<Placemark>
<styleUrl>#P3</styleUrl>
<Point>
<coordinates>114.180241342,22.305828546,0.000</coordinates>
</Point>
</Placemark>
<Placemark>
<styleUrl>#P3</styleUrl>
<Point>
<coordinates>114.180238431,22.305820933,0.000</coordinates>
</Point>
</Placemark>
<Placemark>
<styleUrl>#P3</styleUrl>
<Point>
<coordinates>114.180228039,22.305821142,0.000</coordinates>
</Point>
</Placemark>
<Placemark>
<styleUrl>#P3</styleUrl>
<Point>
<coordinates>114.180233583,22.305817070,0.000</coordinates>
</Point>
</Placemark>
<Placemark>
<styleUrl>#P3</styleUrl>
<Point>
<coordinates>114.180248593,22.305824701,0.000</coordinates>
</Point>
</Placemark>
<Placemark>
<styleUrl>#P3</styleUrl>
<Point>
<coordinates>114.180253945,22.305822682,0.000</coordinates>
</Point>
</Placemark>
<Placemark>
<styleUrl>#P3</styleUrl>
<Point>
<coordinates>114.180241641,22.305802945,0.000</coordinates>
</Point>
</Placemark>
<Placemark>
<styleUrl>#P3</styleUrl>
<Point>
<coordinates>114.180270486,22.305793928,0.000</coordinates>
</Point>
</Placemark>
<Placemark>
<styleUrl>#P3</styleUrl>
<Point>
<coordinates>114.180291010,22.305814614,0.000</coordinates>
</Point>
</Placemark>
<Placemark>
<styleUrl>#P3</styleUrl>
<Point>
<coordinates>114.180254610,22.305781535,0.000</coordinates>
</Point>
</Placemark>
<Placemark>
<styleUrl>#P3</styleUrl>
<Point>
<coordinates>114.180238943,22.305787750,0.000</coordinates>
</Point>
</Placemark>
<Placemark>
<styleUrl>#P3</styleUrl>
<Point>
<coordinates>114.180216107,22.305788259,0.000</coordinates>
</Point>
</Placemark>
<Placemark>
<styleUrl>#P3</styleUrl>
<Point>
<coordinates>114.180014180,22.305655450,0.000</coordinates>
</Point>
</Placemark>
<Placemark>
<styleUrl>#P3</styleUrl>
<Point>
<coordinates>114.180123786,22.305753495,0.000</coordinates>
</Point>
</Placemark>
<Placemark>
<styleUrl>#P3</styleUrl>
<Point>
<coordinates>114.180140681,22.305751009,0.000</coordinates>
</Point>
</Placemark>
<Placemark>
<styleUrl>#P3</styleUrl>
<Point>
<coordinates>114.180155881,22.305746415,0.000</coordinates>
</Point>
</Placemark>
<Placemark>
<styleUrl>#P3</styleUrl>
<Point>
<coordinates>114.180150596,22.305750452,0.000</coordinates>
</Point>
</Placemark>
<Placemark>
<styleUrl>#P3</styleUrl>
<Point>
<coordinates>114.180120385,22.305745824,0.000</coordinates>
</Point>
</Placemark>
<Placemark>
<styleUrl>#P3</styleUrl>
<Point>
<coordinates>114.180101902,22.305731754,0.000</coordinates>
</Point>
</Placemark>
<Placemark>
<styleUrl>#P3</styleUrl>
<Point>
<coordinates>114.180091863,22.305725390,0.000</coordinates>
</Point>
</Placemark>
<Placemark>
<styleUrl>#P3</styleUrl>
<Point>
<coordinates>114.180096526,22.305714699,0.000</coordinates>
</Point>
</Placemark>
<Placemark>
<styleUrl>#P3</styleUrl>
<Point>
<coordinates>114.180082616,22.305703489,0.000</coordinates>
</Point>
</Placemark>
<Placemark>
<styleUrl>#P3</styleUrl>
<Point>
<coordinates>114.180093976,22.305693259,0.000</coordinates>
</Point>
</Placemark>
<Placemark>
<styleUrl>#P3</styleUrl>
<Point>
<coordinates>114.180115083,22.305672116,0.000</coordinates>
</Point>
</Placemark>
<Placemark>
<styleUrl>#P3</styleUrl>
<Point>
<coordinates>114.180310694,22.305703836,0.000</coordinates>
</Point>
</Placemark>
<Placemark>
<styleUrl>#P3</styleUrl>
<Point>
<coordinates>114.180303251,22.305688590,0.000</coordinates>
</Point>
</Placemark>
<Placemark>
<styleUrl>#P3</styleUrl>
<Point>
<coordinates>114.180050141,22.305648541,0.000</coordinates>
</Point>
</Placemark>
<Placemark>
<styleUrl>#P3</styleUrl>
<Point>
<coordinates>114.180205788,22.305688800,0.000</coordinates>
</Point>
</Placemark>
<Placemark>
<styleUrl>#P3</styleUrl>
<Point>
<coordinates>114.180262535,22.305698108,0.000</coordinates>
</Point>
</Placemark>
<Placemark>
<styleUrl>#P3</styleUrl>
<Point>
<coordinates>114.180034958,22.305666913,0.000</coordinates>
</Point>
</Placemark>
<Placemark>
<styleUrl>#P3</styleUrl>
<Point>
<coordinates>114.180019369,22.305647271,0.000</coordinates>
</Point>
</Placemark>
<Placemark>
<styleUrl>#P3</styleUrl>
<Point>
<coordinates>114.180257554,22.305706987,0.000</coordinates>
</Point>
</Placemark>
<Placemark>
<styleUrl>#P3</styleUrl>
<Point>
<coordinates>114.180209273,22.305723527,0.000</coordinates>
</Point>
</Placemark>
<Placemark>
<styleUrl>#P3</styleUrl>
<Point>
<coordinates>114.180265469,22.305712086,0.000</coordinates>
</Point>
</Placemark>
<Placemark>
<styleUrl>#P3</styleUrl>
<Point>
<coordinates>114.180262571,22.305719981,0.000</coordinates>
</Point>
</Placemark>
<Placemark>
<styleUrl>#P3</styleUrl>
<Point>
<coordinates>114.180254435,22.305720543,0.000</coordinates>
</Point>
</Placemark>
<Placemark>
<styleUrl>#P3</styleUrl>
<Point>
<coordinates>114.180183096,22.305726235,0.000</coordinates>
</Point>
</Placemark>
<Placemark>
<styleUrl>#P3</styleUrl>
<Point>
<coordinates>114.180200923,22.305715723,0.000</coordinates>
</Point>
</Placemark>
<Placemark>
<styleUrl>#P3</styleUrl>
<Point>
<coordinates>114.180013493,22.305664817,0.000</coordinates>
</Point>
</Placemark>
<Placemark>
<styleUrl>#P3</styleUrl>
<Point>
<coordinates>114.180217435,22.305714073,0.000</coordinates>
</Point>
</Placemark>
<Placemark>
<styleUrl>#P3</styleUrl>
<Point>
<coordinates>114.180230962,22.305718582,0.000</coordinates>
</Point>
</Placemark>
<Placemark>
<styleUrl>#P3</styleUrl>
<Point>
<coordinates>114.180194967,22.305710950,0.000</coordinates>
</Point>
</Placemark>
<Placemark>
<styleUrl>#P3</styleUrl>
<Point>
<coordinates>114.180103476,22.305631169,0.000</coordinates>
</Point>
</Placemark>
<Placemark>
<styleUrl>#P3</styleUrl>
<Point>
<coordinates>114.180153651,22.305620062,0.000</coordinates>
</Point>
</Placemark>
<Placemark>
<styleUrl>#P3</styleUrl>
<Point>
<coordinates>114.180240570,22.305691650,0.000</coordinates>
</Point>
</Placemark>
<Placemark>
<styleUrl>#P3</styleUrl>
<Point>
<coordinates>114.180005817,22.305559008,0.000</coordinates>
</Point>
</Placemark>
<Placemark>
<styleUrl>#P3</styleUrl>
<Point>
<coordinates>114.180320178,22.305668337,0.000</coordinates>
</Point>
</Placemark>
<Placemark>
<styleUrl>#P3</styleUrl>
<Point>
<coordinates>114.180316329,22.305682388,0.000</coordinates>
</Point>
</Placemark>
<Placemark>
<styleUrl>#P3</styleUrl>
<Point>
<coordinates>114.180290803,22.305681480,0.000</coordinates>
</Point>
</Placemark>
<Placemark>
<styleUrl>#P3</styleUrl>
<Point>
<coordinates>114.180074173,22.305598050,0.000</coordinates>
</Point>
</Placemark>
<Placemark>
<styleUrl>#P3</styleUrl>
<Point>
<coordinates>114.180205076,22.305680891,0.000</coordinates>
</Point>
</Placemark>
<Placemark>
<styleUrl>#P3</styleUrl>
<Point>
<coordinates>114.180303241,22.305687955,0.000</coordinates>
</Point>
</Placemark>
<Placemark>
<styleUrl>#P3</styleUrl>
<Point>
<coordinates>114.180171725,22.305661616,0.000</coordinates>
</Point>
</Placemark>
<Placemark>
<styleUrl>#P3</styleUrl>
<Point>
<coordinates>114.180215595,22.305659588,0.000</coordinates>
</Point>
</Placemark>
<Placemark>
<styleUrl>#P3</styleUrl>
<Point>
<coordinates>114.180190973,22.305655110,0.000</coordinates>
</Point>
</Placemark>
<Placemark>
<styleUrl>#P3</styleUrl>
<Point>
<coordinates>114.180137794,22.305640965,0.000</coordinates>
</Point>
</Placemark>
<Placemark>
<styleUrl>#P3</styleUrl>
<Point>
<coordinates>114.180162736,22.305649580,0.000</coordinates>
</Point>
</Placemark>
<Placemark>
<styleUrl>#P3</styleUrl>
<Point>
<coordinates>114.180212755,22.305669269,0.000</coordinates>
</Point>
</Placemark>
<Placemark>
<styleUrl>#P3</styleUrl>
<Point>
<coordinates>114.180236419,22.305674319,0.000</coordinates>
</Point>
</Placemark>
<Placemark>
<styleUrl>#P3</styleUrl>
<Point>
<coordinates>114.179948257,22.305618221,0.000</coordinates>
</Point>
</Placemark>
<Placemark>
<styleUrl>#P3</styleUrl>
<Point>
<coordinates>114.179934972,22.305613953,0.000</coordinates>
</Point>
</Placemark>
<Placemark>
<styleUrl>#P3</styleUrl>
<Point>
<coordinates>114.180213865,22.305663002,0.000</coordinates>
</Point>
</Placemark>
<Placemark>
<styleUrl>#P3</styleUrl>
<Point>
<coordinates>114.179938488,22.305610417,0.000</coordinates>
</Point>
</Placemark>
<Placemark>
<styleUrl>#P3</styleUrl>
<Point>
<coordinates>114.180197627,22.305657427,0.000</coordinates>
</Point>
</Placemark>
<Placemark>
<styleUrl>#P3</styleUrl>
<Point>
<coordinates>114.180199233,22.305655608,0.000</coordinates>
</Point>
</Placemark>
<Placemark>
<styleUrl>#P3</styleUrl>
<Point>
<coordinates>114.179930835,22.305595231,0.000</coordinates>
</Point>
</Placemark>
<Placemark>
<styleUrl>#P3</styleUrl>
<Point>
<coordinates>114.180184721,22.305647817,0.000</coordinates>
</Point>
</Placemark>
<Placemark>
<styleUrl>#P3</styleUrl>
<Point>
<coordinates>114.180181009,22.305643570,0.000</coordinates>
</Point>
</Placemark>
<Placemark>
<styleUrl>#P3</styleUrl>
<Point>
<coordinates>114.180163536,22.305636244,0.000</coordinates>
</Point>
</Placemark>
<Placemark>
<styleUrl>#P3</styleUrl>
<Point>
<coordinates>114.180153544,22.305631569,0.000</coordinates>
</Point>
</Placemark>
<Placemark>
<styleUrl>#P3</styleUrl>
<Point>
<coordinates>114.180155130,22.305629353,0.000</coordinates>
</Point>
</Placemark>
<Placemark>
<styleUrl>#P3</styleUrl>
<Point>
<coordinates>114.180056319,22.305543255,0.000</coordinates>
</Point>
</Placemark>
<Placemark>
<styleUrl>#P3</styleUrl>
<Point>
<coordinates>114.180037048,22.305526080,0.000</coordinates>
</Point>
</Placemark>
<Placemark>
<styleUrl>#P3</styleUrl>
<Point>
<coordinates>114.180116593,22.305616161,0.000</coordinates>
</Point>
</Placemark>
<Placemark>
<styleUrl>#P3</styleUrl>
<Point>
<coordinates>114.180031994,22.305534590,0.000</coordinates>
</Point>
</Placemark>
<Placemark>
<styleUrl>#P3</styleUrl>
<Point>
<coordinates>114.180098754,22.305609010,0.000</coordinates>
</Point>
</Placemark>
<Placemark>
<styleUrl>#P3</styleUrl>
<Point>
<coordinates>114.180025967,22.305542825,0.000</coordinates>
</Point>
</Placemark>
<Placemark>
<styleUrl>#P3</styleUrl>
<Point>
<coordinates>114.179984715,22.305523432,0.000</coordinates>
</Point>
</Placemark>
<Placemark>
<styleUrl>#P3</styleUrl>
<Point>
<coordinates>114.180013853,22.305563022,0.000</coordinates>
</Point>
</Placemark>
<Placemark>
<styleUrl>#P3</styleUrl>
<Point>
<coordinates>114.180061128,22.305601403,0.000</coordinates>
</Point>
</Placemark>
<Placemark>
<styleUrl>#P3</styleUrl>
<Point>
<coordinates>114.180002580,22.305563063,0.000</coordinates>
</Point>
</Placemark>
<Placemark>
<styleUrl>#P3</styleUrl>
<Point>
<coordinates>114.180046960,22.305605188,0.000</coordinates>
</Point>
</Placemark>
<Placemark>
<styleUrl>#P3</styleUrl>
<Point>
<coordinates>114.180040556,22.305605333,0.000</coordinates>
</Point>
</Placemark>
<Placemark>
<styleUrl>#P3</styleUrl>
<Point>
<coordinates>114.180019537,22.305585856,0.000</coordinates>
</Point>
</Placemark>
<Placemark>
<styleUrl>#P3</styleUrl>
<Point>
<coordinates>114.179982949,22.305575882,0.000</coordinates>
</Point>
</Placemark>
<Placemark>
<styleUrl>#P3</styleUrl>
<Point>
<coordinates>114.179980440,22.305583235,0.000</coordinates>
</Point>
</Placemark>
<Placemark>
<styleUrl>#P3</styleUrl>
<Point>
<coordinates>114.179977790,22.305593654,0.000</coordinates>
</Point>
</Placemark>
<Placemark>
<styleUrl>#P3</styleUrl>
<Point>
<coordinates>114.179967457,22.305589260,0.000</coordinates>
</Point>
</Placemark>
<Placemark>
<styleUrl>#P3</styleUrl>
<Point>
<coordinates>114.179972818,22.305595320,0.000</coordinates>
</Point>
</Placemark>
<Placemark>
<styleUrl>#P3</styleUrl>
<Point>
<coordinates>114.179973256,22.305611269,0.000</coordinates>
</Point>
</Placemark>
<Placemark>
<styleUrl>#P3</styleUrl>
<Point>
<coordinates>114.179983478,22.305632560,0.000</coordinates>
</Point>
</Placemark>
<Placemark>
<styleUrl>#P3</styleUrl>
<Point>
<coordinates>114.180014792,22.305639539,0.000</coordinates>
</Point>
</Placemark>
<Placemark>
<styleUrl>#P3</styleUrl>
<Point>
<coordinates>114.180016734,22.305653045,0.000</coordinates>
</Point>
</Placemark>
<Placemark>
<styleUrl>#P3</styleUrl>
<Point>
<coordinates>114.180009372,22.305659229,0.000</coordinates>
</Point>
</Placemark>
<Placemark>
<styleUrl>#P3</styleUrl>
<Point>
<coordinates>114.180026628,22.305663562,0.000</coordinates>
</Point>
</Placemark>
<Placemark>
<styleUrl>#P3</styleUrl>
<Point>
<coordinates>114.180050216,22.305651396,0.000</coordinates>
</Point>
</Placemark>
<Placemark>
<styleUrl>#P3</styleUrl>
<Point>
<coordinates>114.180058970,22.305663902,0.000</coordinates>
</Point>
</Placemark>
<Placemark>
<styleUrl>#P3</styleUrl>
<Point>
<coordinates>114.180079754,22.305670834,0.000</coordinates>
</Point>
</Placemark>
<Placemark>
<styleUrl>#P3</styleUrl>
<Point>
<coordinates>114.180071723,22.305684007,0.000</coordinates>
</Point>
</Placemark>
<Placemark>
<styleUrl>#P3</styleUrl>
<Point>
<coordinates>114.180123401,22.305693566,0.000</coordinates>
</Point>
</Placemark>
<Placemark>
<styleUrl>#P3</styleUrl>
<Point>
<coordinates>114.180132594,22.305700719,0.000</coordinates>
</Point>
</Placemark>
<Placemark>
<styleUrl>#P3</styleUrl>
<Point>
<coordinates>114.180140069,22.305726933,0.000</coordinates>
</Point>
</Placemark>
<Placemark>
<styleUrl>#P3</styleUrl>
<Point>
<coordinates>114.180163659,22.305733398,0.000</coordinates>
</Point>
</Placemark>
<Placemark>
<styleUrl>#P3</styleUrl>
<Point>
<coordinates>114.180176760,22.305741070,0.000</coordinates>
</Point>
</Placemark>
<Placemark>
<styleUrl>#P3</styleUrl>
<Point>
<coordinates>114.180180584,22.305747286,0.000</coordinates>
</Point>
</Placemark>
<Placemark>
<styleUrl>#P3</styleUrl>
<Point>
<coordinates>114.180184251,22.305750142,0.000</coordinates>
</Point>
</Placemark>
<Placemark>
<styleUrl>#P3</styleUrl>
<Point>
<coordinates>114.180179114,22.305760825,0.000</coordinates>
</Point>
</Placemark>
<Placemark>
<styleUrl>#P3</styleUrl>
<Point>
<coordinates>114.180177398,22.305760052,0.000</coordinates>
</Point>
</Placemark>
<Placemark>
<styleUrl>#P3</styleUrl>
<Point>
<coordinates>114.180124632,22.305735833,0.000</coordinates>
</Point>
</Placemark>
<Placemark>
<styleUrl>#P3</styleUrl>
<Point>
<coordinates>114.180180906,22.305754003,0.000</coordinates>
</Point>
</Placemark>
<Placemark>
<styleUrl>#P3</styleUrl>
<Point>
<coordinates>114.180190435,22.305762623,0.000</coordinates>
</Point>
</Placemark>
<Placemark>
<styleUrl>#P3</styleUrl>
<Point>
<coordinates>114.180181871,22.305768908,0.000</coordinates>
</Point>
</Placemark>
<Placemark>
<styleUrl>#P3</styleUrl>
<Point>
<coordinates>114.180213668,22.305761016,0.000</coordinates>
</Point>
</Placemark>
<Placemark>
<styleUrl>#P3</styleUrl>
<Point>
<coordinates>114.180166094,22.305770111,0.000</coordinates>
</Point>
</Placemark>
<Placemark>
<styleUrl>#P3</styleUrl>
<Point>
<coordinates>114.180152302,22.305764092,0.000</coordinates>
</Point>
</Placemark>
<Placemark>
<styleUrl>#P3</styleUrl>
<Point>
<coordinates>114.180174076,22.305767144,0.000</coordinates>
</Point>
</Placemark>
<Placemark>
<styleUrl>#P3</styleUrl>
<Point>
<coordinates>114.180174361,22.305783137,0.000</coordinates>
</Point>
</Placemark>
<Placemark>
<styleUrl>#P3</styleUrl>
<Point>
<coordinates>114.180185626,22.305790580,0.000</coordinates>
</Point>
</Placemark>
<Placemark>
<styleUrl>#P3</styleUrl>
<Point>
<coordinates>114.180173142,22.305792637,0.000</coordinates>
</Point>
</Placemark>
<Placemark>
<styleUrl>#P3</styleUrl>
<Point>
<coordinates>114.180193874,22.305794464,0.000</coordinates>
</Point>
</Placemark>
<Placemark>
<styleUrl>#P3</styleUrl>
<Point>
<coordinates>114.180177990,22.305799969,0.000</coordinates>
</Point>
</Placemark>
<Placemark>
<styleUrl>#P3</styleUrl>
<Point>
<coordinates>114.180192820,22.305802340,0.000</coordinates>
</Point>
</Placemark>
<Placemark>
<styleUrl>#P3</styleUrl>
<Point>
<coordinates>114.180192556,22.305811282,0.000</coordinates>
</Point>
</Placemark>
<Placemark>
<styleUrl>#P3</styleUrl>
<Point>
<coordinates>114.180200246,22.305818966,0.000</coordinates>
</Point>
</Placemark>
<Placemark>
<styleUrl>#P3</styleUrl>
<Point>
<coordinates>114.180212121,22.305820950,0.000</coordinates>
</Point>
</Placemark>
<Placemark>
<styleUrl>#P3</styleUrl>
<Point>
<coordinates>114.180213185,22.305820826,0.000</coordinates>
</Point>
</Placemark>
<Placemark>
<styleUrl>#P3</styleUrl>
<Point>
<coordinates>114.180217549,22.305828034,0.000</coordinates>
</Point>
</Placemark>
<Placemark>
<styleUrl>#P3</styleUrl>
<Point>
<coordinates>114.180215211,22.305826975,0.000</coordinates>
</Point>
</Placemark>
<Placemark>
<styleUrl>#P3</styleUrl>
<Point>
<coordinates>114.180232988,22.305828898,0.000</coordinates>
</Point>
</Placemark>
<Placemark>
<styleUrl>#P3</styleUrl>
<Point>
<coordinates>114.180241200,22.305823482,0.000</coordinates>
</Point>
</Placemark>
<Placemark>
<styleUrl>#P3</styleUrl>
<Point>
<coordinates>114.180246948,22.305815463,0.000</coordinates>
</Point>
</Placemark>
<Placemark>
<styleUrl>#P3</styleUrl>
<Point>
<coordinates>114.180242158,22.305808846,0.000</coordinates>
</Point>
</Placemark>
<Placemark>
<styleUrl>#P3</styleUrl>
<Point>
<coordinates>114.180254424,22.305803741,0.000</coordinates>
</Point>
</Placemark>
<Placemark>
<styleUrl>#P3</styleUrl>
<Point>
<coordinates>114.180265862,22.305789366,0.000</coordinates>
</Point>
</Placemark>
<Placemark>
<styleUrl>#P3</styleUrl>
<Point>
<coordinates>114.180254416,22.305785254,0.000</coordinates>
</Point>
</Placemark>
<Placemark>
<styleUrl>#P3</styleUrl>
<Point>
<coordinates>114.180253432,22.305778945,0.000</coordinates>
</Point>
</Placemark>
<Placemark>
<styleUrl>#P3</styleUrl>
<Point>
<coordinates>114.180241462,22.305778448,0.000</coordinates>
</Point>
</Placemark>
<Placemark>
<styleUrl>#P3</styleUrl>
<Point>
<coordinates>114.180225426,22.305771614,0.000</coordinates>
</Point>
</Placemark>
<Placemark>
<styleUrl>#P3</styleUrl>
<Point>
<coordinates>114.180215078,22.305765688,0.000</coordinates>
</Point>
</Placemark>
<Placemark>
<styleUrl>#P3</styleUrl>
<Point>
<coordinates>114.180217166,22.305769068,0.000</coordinates>
</Point>
</Placemark>
<Placemark>
<styleUrl>#P3</styleUrl>
<Point>
<coordinates>114.180193871,22.305759190,0.000</coordinates>
</Point>
</Placemark>
<Placemark>
<styleUrl>#P3</styleUrl>
<Point>
<coordinates>114.180187046,22.305740650,0.000</coordinates>
</Point>
</Placemark>
<Placemark>
<styleUrl>#P3</styleUrl>
<Point>
<coordinates>114.180215184,22.305731516,0.000</coordinates>
</Point>
</Placemark>
<Placemark>
<styleUrl>#P3</styleUrl>
<Point>
<coordinates>114.180185756,22.305726759,0.000</coordinates>
</Point>
</Placemark>
<Placemark>
<styleUrl>#P3</styleUrl>
<Point>
<coordinates>114.180176647,22.305720418,0.000</coordinates>
</Point>
</Placemark>
<Placemark>
<styleUrl>#P3</styleUrl>
<Point>
<coordinates>114.180186839,22.305701917,0.000</coordinates>
</Point>
</Placemark>
<Placemark>
<styleUrl>#P3</styleUrl>
<Point>
<coordinates>114.180176941,22.305690532,0.000</coordinates>
</Point>
</Placemark>
<Placemark>
<styleUrl>#P3</styleUrl>
<Point>
<coordinates>114.180174405,22.305672154,0.000</coordinates>
</Point>
</Placemark>
<Placemark>
<styleUrl>#P3</styleUrl>
<Point>
<coordinates>114.179963062,22.305636965,0.000</coordinates>
</Point>
</Placemark>
<Placemark>
<styleUrl>#P3</styleUrl>
<Point>
<coordinates>114.179978476,22.305653293,0.000</coordinates>
</Point>
</Placemark>
<Placemark>
<styleUrl>#P3</styleUrl>
<Point>
<coordinates>114.180008533,22.305641431,0.000</coordinates>
</Point>
</Placemark>
<Placemark>
<styleUrl>#P3</styleUrl>
<Point>
<coordinates>114.180215863,22.305650704,0.000</coordinates>
</Point>
</Placemark>
<Placemark>
<styleUrl>#P3</styleUrl>
<Point>
<coordinates>114.180211440,22.305642884,0.000</coordinates>
</Point>
</Placemark>
<Placemark>
<styleUrl>#P3</styleUrl>
<Point>
<coordinates>114.180156880,22.305633055,0.000</coordinates>
</Point>
</Placemark>
<Placemark>
<styleUrl>#P3</styleUrl>
<Point>
<coordinates>114.180030721,22.305617710,0.000</coordinates>
</Point>
</Placemark>
<Placemark>
<styleUrl>#P3</styleUrl>
<Point>
<coordinates>114.180155612,22.305638392,0.000</coordinates>
</Point>
</Placemark>
<Placemark>
<styleUrl>#P3</styleUrl>
<Point>
<coordinates>114.180010168,22.305606259,0.000</coordinates>
</Point>
</Placemark>
<Placemark>
<styleUrl>#P3</styleUrl>
<Point>
<coordinates>114.180211135,22.305627504,0.000</coordinates>
</Point>
</Placemark>
<Placemark>
<styleUrl>#P3</styleUrl>
<Point>
<coordinates>114.180162627,22.305623681,0.000</coordinates>
</Point>
</Placemark>
<Placemark>
<styleUrl>#P3</styleUrl>
<Point>
<coordinates>114.180198914,22.305624204,0.000</coordinates>
</Point>
</Placemark>
<Placemark>
<styleUrl>#P3</styleUrl>
<Point>
<coordinates>114.180199127,22.305623197,0.000</coordinates>
</Point>
</Placemark>
<Placemark>
<styleUrl>#P3</styleUrl>
<Point>
<coordinates>114.180141659,22.305610799,0.000</coordinates>
</Point>
</Placemark>
<Placemark>
<styleUrl>#P3</styleUrl>
<Point>
<coordinates>114.180188266,22.305586871,0.000</coordinates>
</Point>
</Placemark>
<Placemark>
<styleUrl>#P3</styleUrl>
<Point>
<coordinates>114.180123555,22.305590136,0.000</coordinates>
</Point>
</Placemark>
<Placemark>
<styleUrl>#P3</styleUrl>
<Point>
<coordinates>114.180036542,22.305585230,0.000</coordinates>
</Point>
</Placemark>
<Placemark>
<styleUrl>#P3</styleUrl>
<Point>
<coordinates>114.180097198,22.305594706,0.000</coordinates>
</Point>
</Placemark>
<Placemark>
<styleUrl>#P3</styleUrl>
<Point>
<coordinates>114.180121858,22.305600950,0.000</coordinates>
</Point>
</Placemark>
<Placemark>
<styleUrl>#P3</styleUrl>
<Point>
<coordinates>114.180145232,22.305616421,0.000</coordinates>
</Point>
</Placemark>
<Placemark>
<styleUrl>#P3</styleUrl>
<Point>
<coordinates>114.180133106,22.305619350,0.000</coordinates>
</Point>
</Placemark>
<Placemark>
<styleUrl>#P3</styleUrl>
<Point>
<coordinates>114.180148183,22.305615931,0.000</coordinates>
</Point>
</Placemark>
<Placemark>
<styleUrl>#P3</styleUrl>
<Point>
<coordinates>114.180146053,22.305617126,0.000</coordinates>
</Point>
</Placemark>
<Placemark>
<styleUrl>#P3</styleUrl>
<Point>
<coordinates>114.180130094,22.305613764,0.000</coordinates>
</Point>
</Placemark>
<Placemark>
<styleUrl>#P3</styleUrl>
<Point>
<coordinates>114.180131771,22.305612648,0.000</coordinates>
</Point>
</Placemark>
<Placemark>
<styleUrl>#P3</styleUrl>
<Point>
<coordinates>114.180132670,22.305608044,0.000</coordinates>
</Point>
</Placemark>
<Placemark>
<styleUrl>#P3</styleUrl>
<Point>
<coordinates>114.180131063,22.305607852,0.000</coordinates>
</Point>
</Placemark>
<Placemark>
<styleUrl>#P3</styleUrl>
<Point>
<coordinates>114.180130548,22.305607324,0.000</coordinates>
</Point>
</Placemark>
<Placemark>
<styleUrl>#P3</styleUrl>
<Point>
<coordinates>114.179892478,22.305560741,0.000</coordinates>
</Point>
</Placemark>
<Placemark>
<styleUrl>#P3</styleUrl>
<Point>
<coordinates>114.179888952,22.305558994,0.000</coordinates>
</Point>
</Placemark>
<Placemark>
<styleUrl>#P3</styleUrl>
<Point>
<coordinates>114.180130314,22.305600519,0.000</coordinates>
</Point>
</Placemark>
<Placemark>
<styleUrl>#P3</styleUrl>
<Point>
<coordinates>114.180116650,22.305596471,0.000</coordinates>
</Point>
</Placemark>
<Placemark>
<styleUrl>#P3</styleUrl>
<Point>
<coordinates>114.180104454,22.305592808,0.000</coordinates>
</Point>
</Placemark>
<Placemark>
<styleUrl>#P3</styleUrl>
<Point>
<coordinates>114.180101962,22.305591948,0.000</coordinates>
</Point>
</Placemark>
<Placemark>
<styleUrl>#P3</styleUrl>
<Point>
<coordinates>114.180088427,22.305584221,0.000</coordinates>
</Point>
</Placemark>
<Placemark>
<styleUrl>#P3</styleUrl>
<Point>
<coordinates>114.180066604,22.305573063,0.000</coordinates>
</Point>
</Placemark>
<Placemark>
<styleUrl>#P3</styleUrl>
<Point>
<coordinates>114.180052454,22.305565159,0.000</coordinates>
</Point>
</Placemark>
<Placemark>
<styleUrl>#P3</styleUrl>
<Point>
<coordinates>114.180045899,22.305568717,0.000</coordinates>
</Point>
</Placemark>
<Placemark>
<styleUrl>#P3</styleUrl>
<Point>
<coordinates>114.180034956,22.305566588,0.000</coordinates>
</Point>
</Placemark>
<Placemark>
<styleUrl>#P3</styleUrl>
<Point>
<coordinates>114.180040718,22.305565914,0.000</coordinates>
</Point>
</Placemark>
<Placemark>
<styleUrl>#P3</styleUrl>
<Point>
<coordinates>114.180037976,22.305563955,0.000</coordinates>
</Point>
</Placemark>
<Placemark>
<styleUrl>#P3</styleUrl>
<Point>
<coordinates>114.180026439,22.305564230,0.000</coordinates>
</Point>
</Placemark>
<Placemark>
<styleUrl>#P3</styleUrl>
<Point>
<coordinates>114.180006860,22.305567771,0.000</coordinates>
</Point>
</Placemark>
<Placemark>
<styleUrl>#P3</styleUrl>
<Point>
<coordinates>114.179995352,22.305567265,0.000</coordinates>
</Point>
</Placemark>
<Placemark>
<styleUrl>#P3</styleUrl>
<Point>
<coordinates>114.179999090,22.305574112,0.000</coordinates>
</Point>
</Placemark>
</Folder>
</Document>
</kml>
