% program   : RTKPOST demo5 b34h
% inp file  : D:\AAE4203_Laboratory\Data\lab_data.obs
% inp file  : D:\AAE4203_Laboratory\Data\lab_data.nav
% obs start : 2025/10/27 02:13:37.0 GPST (week2390  94417.0s)
% obs end   : 2025/10/27 02:17:41.0 GPST (week2390  94661.0s)
% pos mode  : Single
% elev mask : 15.0 deg
% ionos opt : Broadcast
% tropo opt : Saastamoinen
% ephemeris : Broadcast
% navi sys  : GPS GLONASS Galileo QZSS BDS
%
% (lat/lon/height=WGS84/ellipsoidal,Q=1:fix,2:float,3:sbas,4:dgps,5:single,6:ppp,ns=# of satellites)
%  GPST                  latitude(deg) longitude(deg)  height(m)   Q  ns   sdn(m)   sde(m)   sdu(m)  sdne(m)  sdeu(m)  sdun(m) age(s)  ratio    vn(m/s)    ve(m/s)    vu(m/s)      sdvn     sdve     sdvu    sdvne    sdveu    sdvun
2025/10/27 02:13:37.000   22.305678907  114.180127079    28.1477   5  31   1.5063   1.7804   5.3036   0.5157  -0.6314  -0.9033   0.00    0.0   -0.06519   -0.25284   -0.12239   0.06467  0.07433  0.17972  0.02177  0.00923 -0.04660
2025/10/27 02:13:38.000   22.305686797  114.180122298    24.2683   5  31   1.5063   1.7804   5.3039   0.5155  -0.6312  -0.9033   0.00    0.0    0.00612   -0.16687   -0.05231   0.06467  0.07433  0.17971  0.02176  0.00925 -0.04660
2025/10/27 02:13:39.000   22.305693733  114.180114604    25.8741   5  30   1.5276   1.8561   5.3042   0.3639  -0.6387  -0.9005   0.00    0.0    0.29503   -0.11119   -0.23029   0.06551  0.07669  0.17998  0.01660  0.01649 -0.04769
2025/10/27 02:13:40.000   22.305694349  114.180113651    24.4147   5  30   1.5277   1.8561   5.3045   0.3635  -0.6386  -0.9004   0.00    0.0    0.11562   -0.18201   -0.00702   0.06551  0.07669  0.17998  0.01658  0.01651 -0.04768
2025/10/27 02:13:41.000   22.305682818  114.180137379    23.3750   5  31   1.5065   1.7804   5.3047   0.5150  -0.6306  -0.9030   0.00    0.0   -0.08653    0.19847    0.13750   0.06467  0.07433  0.17971  0.02173  0.00933 -0.04659
2025/10/27 02:13:42.000   22.305686728  114.180130050    21.3503   5  31   1.5065   1.7805   5.3050   0.5148  -0.6304  -0.9029   0.00    0.0    0.04085    0.03271    0.10262   0.06467  0.07434  0.17971  0.02171  0.00935 -0.04658
2025/10/27 02:13:43.000   22.305680343  114.180146113    21.3435   5  30   1.5455   1.9157   5.4274   0.1447   0.6421  -1.1000   0.00    0.0    0.01359   -0.06966   -0.03784   0.06596  0.07770  0.18334  0.01332  0.03014 -0.05139
2025/10/27 02:13:44.000   22.305673439  114.180158982    19.3700   5  30   1.5456   1.9157   5.4277   0.1438   0.6422  -1.1000   0.00    0.0    0.05011   -0.01054   -0.06889   0.06596  0.07770  0.18333  0.01329  0.03015 -0.05139
2025/10/27 02:13:45.000   22.305683092  114.180132762    17.1320   5  31   1.5067   1.7805   5.3059   0.5143  -0.6299  -0.9027   0.00    0.0   -0.16550    0.09856    0.33861   0.06467  0.07434  0.17970  0.02168  0.00942 -0.04657
2025/10/27 02:13:46.000   22.305672023  114.180133641    20.2358   5  31   1.5067   1.7805   5.3061   0.5141  -0.6297  -0.9026   0.00    0.0   -0.15723    0.08600    0.01901   0.06467  0.07434  0.17970  0.02167  0.00945 -0.04657
2025/10/27 02:13:47.000   22.305673484  114.180113094    23.2760   5  30   1.5281   1.8562   5.3064   0.3612  -0.6378  -0.8997   0.00    0.0   -0.61829   -0.40847    0.87800   0.06551  0.07670  0.17997  0.01646  0.01661 -0.04766
2025/10/27 02:13:48.000   22.305674769  114.180100998    29.2384   5  30   1.5282   1.8562   5.3067   0.3609  -0.6377  -0.8996   0.00    0.0    0.13313   -0.05694    0.02843   0.06551  0.07670  0.17997  0.01644  0.01662 -0.04766
2025/10/27 02:13:49.000   22.305681876  114.180101251    28.6508   5  30   1.5282   1.8562   5.3070   0.3605  -0.6376  -0.8995   0.00    0.0   -0.02841   -0.07005   -0.17704   0.06551  0.07670  0.17997  0.01642  0.01664 -0.04766
2025/10/27 02:13:50.000   22.305684426  114.180106375    26.1779   5  30   1.5283   1.8562   5.3073   0.3602  -0.6375  -0.8994   0.00    0.0    0.10557    0.01392    0.00819   0.06551  0.07670  0.17996  0.01641  0.01665 -0.04766
2025/10/27 02:13:51.000   22.305685581  114.180108030    23.4999   5  30   1.5284   1.8562   5.3076   0.3599  -0.6374  -0.8993   0.00    0.0   -0.07802   -0.06196   -0.01360   0.06551  0.07670  0.17996  0.01639  0.01666 -0.04765
2025/10/27 02:13:52.000   22.305683689  114.180110424    21.8544   5  30   1.5284   1.8562   5.3078   0.3595  -0.6373  -0.8992   0.00    0.0    0.10925    0.07883    0.19205   0.06551  0.07670  0.17996  0.01637  0.01668 -0.04765
2025/10/27 02:13:53.000   22.305689410  114.180106116    19.7577   5  30   1.5285   1.8562   5.3081   0.3592  -0.6372  -0.8991   0.00    0.0    0.17820   -0.08339   -0.15365   0.06551  0.07670  0.17996  0.01635  0.01669 -0.04765
2025/10/27 02:13:54.000   22.305697796  114.180094185    22.4796   5  30   1.5285   1.8563   5.3084   0.3589  -0.6370  -0.8989   0.00    0.0    0.06268   -0.04815   -0.03022   0.06551  0.07670  0.17996  0.01634  0.01671 -0.04764
2025/10/27 02:13:55.000   22.305710276  114.180071333    22.5783   5  30   1.5286   1.8563   5.3087   0.3585  -0.6369  -0.8988   0.00    0.0    0.10736    0.02959    0.03410   0.06551  0.07670  0.17996  0.01632  0.01672 -0.04764
2025/10/27 02:13:56.000   22.305710400  114.180076191    25.7071   5  31   1.5071   1.7806   5.3089   0.5122  -0.6278  -0.9018   0.00    0.0    0.35629    0.24349   -0.10291   0.06466  0.07434  0.17968  0.02155  0.00969 -0.04654
2025/10/27 02:13:57.000   22.305705495  114.180075624    35.0707   5  30   1.5074   1.8361   5.3122   0.5009  -0.5598  -0.9042   0.00    0.0    0.32004   -0.01599   -0.10427   0.06481  0.07943  0.18275  0.01841  0.03207 -0.04810
2025/10/27 02:13:58.000   22.305703369  114.180085717    25.7281   5  30   1.5147   1.9086   5.2877   0.7521  -0.2072  -0.2773   0.00    0.0    0.30752    0.23639    0.19606   0.06411  0.08065  0.17848  0.03152  0.02809 -0.03268
2025/10/27 02:13:59.000   22.305722313  114.180085209    31.0791   5  32   1.4786   1.7491   5.1632   0.5996  -0.8983  -0.6711   0.00    0.0    0.36450   -0.08807    0.83049   0.06279  0.07255  0.17362  0.02670 -0.02559 -0.03809
2025/10/27 02:14:00.000   22.305704395  114.180103510    24.5835   5  31   1.4787   1.8001   5.1645   0.5973  -0.8743  -0.6715   0.00    0.0    0.25378    0.51583   -0.10332   0.06281  0.07665  0.17539  0.02590 -0.00640 -0.03864
2025/10/27 02:14:01.000   22.305725362  114.180098764    22.4159   5  31   1.4787   1.8001   5.1648   0.5972  -0.8741  -0.6715   0.00    0.0    0.76784   -0.52505    1.73912   0.06281  0.07665  0.17539  0.02589 -0.00634 -0.03864
2025/10/27 02:14:02.000   22.305717424  114.180168239    22.7506   5  30   1.5290   1.8564   5.3106   0.3562  -0.6362  -0.8981   0.00    0.0    0.56718    0.15196   -0.55770   0.06551  0.07670  0.17994  0.01619  0.01682 -0.04762
2025/10/27 02:14:03.000   22.305722192  114.180172215    29.5244   5  31   1.5074   1.7807   5.3108   0.5110  -0.6265  -0.9013   0.00    0.0    0.33832    0.40549   -0.14099   0.06466  0.07434  0.17967  0.02146  0.00985 -0.04651
2025/10/27 02:14:04.000   22.305745236  114.180196600    25.5267   5  30   1.5077   1.8362   5.3142   0.4998  -0.5577  -0.9037   0.00    0.0    0.23452    0.30592   -0.03466   0.06481  0.07944  0.18275  0.01832  0.03215 -0.04808
2025/10/27 02:14:05.000   22.305740548  114.180174639    28.5809   5  30   1.5480   1.7819   5.3178   0.4873  -0.6122  -0.9508   0.00    0.0    0.50457    0.31210   -0.30620   0.06880  0.07462  0.18397  0.01756  0.01877 -0.05562
2025/10/27 02:14:06.000   22.305724412  114.180176438    35.0261   5  31   1.5076   1.7807   5.3117   0.5104  -0.6259  -0.9010   0.00    0.0    0.52327    0.27495   -0.80551   0.06465  0.07434  0.17966  0.02143  0.00992 -0.04650
2025/10/27 02:14:07.000   22.305726696  114.180188556    33.3996   5  31   1.5076   1.7807   5.3119   0.5102  -0.6257  -0.9009   0.00    0.0    0.26618    0.91355    1.06421   0.06465  0.07435  0.17966  0.02141  0.00994 -0.04650
2025/10/27 02:14:08.000   22.305732694  114.180205203    29.1707   5  31   1.5077   1.7808   5.3122   0.5100  -0.6256  -0.9009   0.00    0.0    0.40066    0.34316   -0.17965   0.06465  0.07435  0.17966  0.02140  0.00997 -0.04650
2025/10/27 02:14:09.000   22.305739316  114.180183983    26.0662   5  31   1.5077   1.7808   5.3125   0.5098  -0.6254  -0.9008   0.00    0.0    0.43456    0.60362   -0.13481   0.06465  0.07435  0.17966  0.02139  0.00999 -0.04649
2025/10/27 02:14:10.000   22.305756326  114.180160516    22.9428   5  31   1.5077   1.7808   5.3127   0.5097  -0.6252  -0.9007   0.00    0.0    0.57098    0.64752   -0.11381   0.06465  0.07435  0.17965  0.02138  0.01001 -0.04649
2025/10/27 02:14:11.000   22.305762960  114.180181132    17.9378   5  31   1.5078   1.7808   5.3130   0.5095  -0.6250  -0.9006   0.00    0.0    0.51469    0.43092   -0.08116   0.06465  0.07435  0.17965  0.02137  0.01004 -0.04649
2025/10/27 02:14:12.000   22.305768425  114.180157370    23.4252   5  31   1.5078   1.7808   5.3133   0.5093  -0.6248  -0.9006   0.00    0.0    0.38170    0.23883   -0.46238   0.06465  0.07435  0.17965  0.02135  0.01006 -0.04648
2025/10/27 02:14:13.000   22.305770046  114.180150875    26.2631   5  31   1.5079   1.7808   5.3136   0.5091  -0.6246  -0.9005   0.00    0.0    0.54209    0.32148    0.26129   0.06465  0.07435  0.17965  0.02134  0.01008 -0.04648
2025/10/27 02:14:14.000   22.305777733  114.180150223    25.8648   5  31   1.5079   1.7808   5.3138   0.5089  -0.6244  -0.9004   0.00    0.0    0.63510    0.70460   -0.59462   0.06465  0.07435  0.17965  0.02133  0.01011 -0.04648
2025/10/27 02:14:15.000   22.305785369  114.180143725    28.5971   5  31   1.5080   1.7808   5.3141   0.5087  -0.6242  -0.9003   0.00    0.0    0.31049    0.48173   -0.07361   0.06465  0.07435  0.17964  0.02132  0.01013 -0.04647
2025/10/27 02:14:16.000   22.305791257  114.180169840    22.1071   5  30   1.5123   1.9140   5.4822   0.5818  -1.1548  -0.9817   0.00    0.0    0.53417    0.55260   -0.26543   0.06501  0.07952  0.18411  0.02544 -0.03215 -0.04935
2025/10/27 02:14:17.000   22.305793736  114.180175157    22.6252   5  30   1.5124   1.9140   5.4824   0.5816  -1.1546  -0.9816   0.00    0.0    0.27815    0.67595   -0.20816   0.06501  0.07952  0.18410  0.02542 -0.03214 -0.04935
2025/10/27 02:14:18.000   22.305795722  114.180182014    21.7796   5  30   1.5124   1.9140   5.4826   0.5815  -1.1544  -0.9815   0.00    0.0    0.36189    0.69327   -0.04957   0.06501  0.07952  0.18410  0.02541 -0.03213 -0.04934
2025/10/27 02:14:19.000   22.305798704  114.180194186    23.4454   5  31   1.4815   1.8985   5.3018   0.6417  -1.2927  -0.7333   0.00    0.0    0.65372    0.83901    0.07204   0.06313  0.07791  0.17810  0.02987 -0.04212 -0.04138
2025/10/27 02:14:20.000   22.305804743  114.180197123    21.2524   5  31   1.4815   1.8985   5.3021   0.6416  -1.2926  -0.7332   0.00    0.0    0.35438    0.58338    0.46745   0.06313  0.07791  0.17810  0.02986 -0.04211 -0.04138
2025/10/27 02:14:21.000   22.305809250  114.180196179    20.4876   5  31   1.4816   1.8985   5.3024   0.6415  -1.2925  -0.7332   0.00    0.0    0.63919    0.66850   -0.28810   0.06313  0.07791  0.17810  0.02985 -0.04211 -0.04138
2025/10/27 02:14:22.000   22.305812854  114.180192010    20.3151   5  31   1.4816   1.8985   5.3027   0.6414  -1.2923  -0.7332   0.00    0.0    0.42412    0.42647   -0.14666   0.06313  0.07791  0.17809  0.02984 -0.04210 -0.04137
2025/10/27 02:14:23.000   22.305820280  114.180188364    20.5441   5  31   1.4816   1.8985   5.3030   0.6412  -1.2922  -0.7331   0.00    0.0    0.67666    0.67111   -0.24554   0.06313  0.07790  0.17809  0.02983 -0.04209 -0.04137
2025/10/27 02:14:24.000   22.305826378  114.180195304    20.4955   5  31   1.4817   1.8984   5.3033   0.6411  -1.2920  -0.7331   0.00    0.0    0.61396    0.86068   -0.27621   0.06313  0.07790  0.17809  0.02982 -0.04208 -0.04137
2025/10/27 02:14:25.000   22.305824907  114.180201639    20.8520   5  30   1.5168   1.9626   5.3304   0.7564  -1.3911  -0.8430   0.00    0.0    0.41603    0.59316   -0.10116   0.06696  0.08297  0.18409  0.03907 -0.05570 -0.05246
2025/10/27 02:14:26.000   22.305827046  114.180209575    21.1596   5  30   1.5168   1.9625   5.3308   0.7563  -1.3910  -0.8430   0.00    0.0    0.41769    0.67686   -0.11083   0.06696  0.08297  0.18409  0.03907 -0.05569 -0.05246
2025/10/27 02:14:27.000   22.305827787  114.180209489    21.0953   5  31   1.4818   1.8984   5.3042   0.6407  -1.2916  -0.7330   0.00    0.0    0.24901    0.56708    0.11976   0.06313  0.07790  0.17809  0.02980 -0.04206 -0.04136
2025/10/27 02:14:28.000   22.305826257  114.180228667    19.4350   5  30   1.5128   1.9139   5.4846   0.5798  -1.1524  -0.9807   0.00    0.0    0.50249    1.04305   -0.27273   0.06500  0.07952  0.18406  0.02530 -0.03202 -0.04930
2025/10/27 02:14:29.000   22.305828546  114.180241342    19.7519   5  29   1.5487   1.9762   5.5140   0.7063  -1.2675  -1.0719   0.00    0.0    0.11033    0.81581   -0.80831   0.06926  0.08402  0.19109  0.03590 -0.04918 -0.06049
2025/10/27 02:14:30.000   22.305820933  114.180238431    22.1833   5  29   1.5487   1.9762   5.5143   0.7062  -1.2674  -1.0719   0.00    0.0   -0.13689   -0.12814    0.21492   0.06926  0.08402  0.19109  0.03589 -0.04918 -0.06049
2025/10/27 02:14:31.000   22.305821142  114.180228039    27.9975   5  28   1.5586   1.9789   6.5154   0.7189  -1.1150  -0.7359   0.00    0.0   -0.08134    0.81046   -0.59939   0.06942  0.08452  0.19638  0.03648 -0.04473 -0.05871
2025/10/27 02:14:32.000   22.305817070  114.180233583    25.4682   5  29   1.5488   1.9761   5.5148   0.7059  -1.2672  -1.0719   0.00    0.0   -0.07781   -0.01095    1.88903   0.06926  0.08402  0.19109  0.03587 -0.04916 -0.06049
2025/10/27 02:14:33.000   22.305824701  114.180248593    22.2321   5  28   1.6778   2.0758   5.6676   0.9528  -1.5605  -1.4111   0.00    0.0   -0.12568    0.29129    1.16419   0.07555  0.08950  0.19875  0.04709 -0.06404 -0.07286
2025/10/27 02:14:34.000   22.305822682  114.180253945    20.7856   5  28   1.6778   2.0757   5.6680   0.9527  -1.5606  -1.4114   0.00    0.0   -0.52877    0.73888    0.56000   0.07555  0.08949  0.19875  0.04708 -0.06404 -0.07286
2025/10/27 02:14:35.000   22.305802945  114.180241641    24.7772   5  29   1.6381   2.0678   5.4645   0.9865  -1.6457  -1.2021   0.00    0.0   -0.22511    0.77287   -0.15361   0.07254  0.08898  0.19033  0.04918 -0.06820 -0.06403
2025/10/27 02:14:36.000   22.305793928  114.180270486    17.5792   5  28   1.6392   2.1465   5.6917   0.9692  -1.9039  -1.1632   0.00    0.0   -0.53411    0.49143   -0.79279   0.07254  0.09478  0.19930  0.04926 -0.08113 -0.06415
2025/10/27 02:14:37.000   22.305814614  114.180291010    20.5336   5  24   1.8486   2.3911   7.3778   1.1038  -2.2143  -0.5413   0.00    0.0   -0.55464    0.57749    0.10846   0.08127  0.10302  0.22307  0.05296 -0.08972 -0.07276
2025/10/27 02:14:38.000   22.305781535  114.180254610    22.9390   5  29   1.6382   2.0677   5.4661   0.9862  -1.6461  -1.2030   0.00    0.0   -0.27057    0.67469   -0.17345   0.07254  0.08897  0.19036  0.04917 -0.06821 -0.06405
2025/10/27 02:14:39.000   22.305787750  114.180238943    24.3760   5  27   1.8055   2.3214   5.5640   1.3224  -1.2889  -0.8784   0.00    0.0   -0.45195    0.75866   -0.85058   0.07931  0.09572  0.19168  0.05911 -0.06625 -0.06391
2025/10/27 02:14:40.000   22.305788259  114.180216107    27.1565   5  27   1.8055   2.3214   5.5644   1.3224  -1.2893  -0.8790   0.00    0.0   -0.60482    0.29129    0.71765   0.07931  0.09571  0.19169  0.05910 -0.06626 -0.06392
2025/10/27 02:14:41.000   22.305655450  114.180014180    60.3145   5  29   1.5870   2.0203   5.3578   0.8905  -1.3029  -0.6973   0.00    0.0   -0.45405    0.11214    0.27893   0.06987  0.08409  0.18417  0.04237 -0.05614 -0.05326
2025/10/27 02:14:42.000   22.305753495  114.180123786    51.3492   5  28   1.7328   2.1494   5.4769   1.1417  -1.5906  -1.1296   0.00    0.0   -0.53075    0.75445   -0.30154   0.07689  0.09121  0.19085  0.05412 -0.07013 -0.06665
2025/10/27 02:14:43.000   22.305751009  114.180140681    55.3995   5  28   1.7329   2.1493   5.4775   1.1416  -1.5908  -1.1300   0.00    0.0   -0.64624    0.15889    0.51715   0.07689  0.09121  0.19086  0.05411 -0.07014 -0.06666
2025/10/27 02:14:44.000   22.305746415  114.180155881    61.3742   5  26   1.8073   2.2266   5.8974   1.1197  -1.8440  -1.3988   0.00    0.0   -0.78874    0.10697   -0.12450   0.08058  0.09761  0.20911  0.05327 -0.08107 -0.07760
2025/10/27 02:14:45.000   22.305750452  114.180150596    60.2956   5  28   1.7330   2.1493   5.4785   1.1415  -1.5911  -1.1307   0.00    0.0   -0.96551    0.05520    0.35573   0.07690  0.09120  0.19088  0.05411 -0.07015 -0.06668
2025/10/27 02:14:46.000   22.305745824  114.180120385    64.2473   5  28   1.7331   2.1492   5.4790   1.1414  -1.5913  -1.1311   0.00    0.0   -0.84871   -0.30962    0.70247   0.07690  0.09120  0.19089  0.05410 -0.07016 -0.06669
2025/10/27 02:14:47.000   22.305731754  114.180101902    65.9644   5  27   1.8004   2.1668   5.4950   1.1988  -1.6268  -1.2171   0.00    0.0   -0.95531   -0.13490    0.31877   0.07873  0.09152  0.19226  0.05528 -0.06890 -0.06375
2025/10/27 02:14:48.000   22.305725390  114.180091863    68.4100   5  27   1.8004   2.1668   5.4955   1.1988  -1.6270  -1.2174   0.00    0.0   -0.84372   -0.26805    0.58529   0.07873  0.09152  0.19227  0.05528 -0.06891 -0.06376
2025/10/27 02:14:49.000   22.305714699  114.180096526    70.2132   5  27   1.8005   2.1667   5.4961   1.1987  -1.6271  -1.2178   0.00    0.0   -0.90920   -0.41115    0.74447   0.07873  0.09152  0.19228  0.05527 -0.06891 -0.06377
2025/10/27 02:14:50.000   22.305703489  114.180082616    74.2636   5  26   1.8012   2.2438   5.7230   1.1865  -1.8914  -1.1852   0.00    0.0   -1.01361   -0.33251    0.57527   0.07875  0.09766  0.20151  0.05586 -0.08249 -0.06468
2025/10/27 02:14:51.000   22.305693259  114.180093976    71.1220   5  26   1.8013   2.2437   5.7236   1.1864  -1.8916  -1.1856   0.00    0.0   -0.83507   -0.45429    0.20206   0.07875  0.09766  0.20152  0.05585 -0.08249 -0.06469
2025/10/27 02:14:52.000   22.305672116  114.180115083    70.3362   5  25   1.8146   2.3119   5.8239   1.1337  -2.0438  -1.0822   0.00    0.0   -0.67540   -0.24704    0.08856   0.07890  0.10127  0.20424  0.05468 -0.08772 -0.06346
2025/10/27 02:14:53.000   22.305703836  114.180310694    39.2654   5  25   1.7705   2.7966   6.3525   1.2691  -2.8581  -1.3075   0.00    0.0   -0.50776   -0.36974    0.04063   0.07955  0.12314  0.22116  0.06515 -0.11859 -0.07837
2025/10/27 02:14:54.000   22.305688590  114.180303251    42.1712   5  25   1.7705   2.7966   6.3530   1.2691  -2.8582  -1.3080   0.00    0.0   -0.76881   -0.46961    0.42559   0.07955  0.12314  0.22116  0.06515 -0.11859 -0.07838
2025/10/27 02:14:55.000   22.305648541  114.180050141    81.0810   5  27   1.7345   2.2260   5.7098   1.1271  -1.8603  -1.0960   0.00    0.0   -0.46087   -0.45315    0.08132   0.07694  0.09737  0.20022  0.05469 -0.08356 -0.06768
2025/10/27 02:14:56.000   22.305688800  114.180205788    55.4847   5  26   1.7675   2.5932   6.0788   1.3123  -2.4969  -1.3820   0.00    0.0   -0.26318   -0.37871   -0.06758   0.07955  0.11541  0.21465  0.06515 -0.10852 -0.07841
2025/10/27 02:14:57.000   22.305698108  114.180262535    38.9395   5  25   1.7708   2.8884   6.5729   1.2592  -3.0682  -1.2818   0.00    0.0   -0.10068   -0.33255    0.46711   0.07955  0.12606  0.23344  0.06520 -0.12818 -0.07849
2025/10/27 02:14:58.000   22.305666913  114.180034958    77.7630   5  26   1.8016   2.2435   5.7274   1.1859  -1.8928  -1.1881   0.00    0.0    0.02301   -0.00324   -0.26238   0.07875  0.09765  0.20159  0.05582 -0.08253 -0.06477
2025/10/27 02:14:59.000   22.305647271  114.180019369    80.0851   5  27   1.7347   2.2258   5.7120   1.1269  -1.8610  -1.0975   0.00    0.0    0.45067    0.12507   -0.34566   0.07694  0.09736  0.20026  0.05468 -0.08358 -0.06773
2025/10/27 02:15:00.000   22.305706987  114.180257554    42.5800   5  24   1.8444   2.8249   6.3858   1.3479  -2.9017  -1.4268   0.00    0.0    0.24336   -0.12498   -0.00547   0.08161  0.12375  0.22188  0.06685 -0.11772 -0.07644
2025/10/27 02:15:01.000   22.305723527  114.180209273    47.7390   5  25   1.8416   2.6223   6.1114   1.3870  -2.5444  -1.4918   0.00    0.0    0.04962    0.37797   -1.79912   0.08161  0.11598  0.21548  0.06673 -0.10757 -0.07633
2025/10/27 02:15:02.000   22.305712086  114.180265469    38.4451   5  24   1.8445   2.8248   6.3867   1.3479  -2.9020  -1.4278   0.00    0.0    0.34170   -0.09851   -1.24742   0.08161  0.12375  0.22189  0.06684 -0.11772 -0.07647
2025/10/27 02:15:03.000   22.305719981  114.180262571    35.9481   5  24   1.8444   2.9172   6.6066   1.3404  -3.1113  -1.4067   0.00    0.0    0.36354   -1.05030    0.94131   0.08161  0.12653  0.23427  0.06670 -0.12737 -0.07631
2025/10/27 02:15:04.000   22.305720543  114.180254435    35.7041   5  24   1.8446   2.8248   6.3877   1.3480  -2.9022  -1.4287   0.00    0.0    0.32874   -0.57097   -0.62928   0.08161  0.12374  0.22191  0.06684 -0.11773 -0.07649
2025/10/27 02:15:05.000   22.305726235  114.180183096    49.5445   5  25   1.8419   2.6222   6.1139   1.3869  -2.5453  -1.4934   0.00    0.0    0.07913   -0.94932    0.49615   0.08161  0.11597  0.21552  0.06671 -0.10760 -0.07638
2025/10/27 02:15:06.000   22.305715723  114.180200923    46.9519   5  26   1.7683   2.5929   6.0849   1.3123  -2.4990  -1.3862   0.00    0.0   -0.12006   -0.55552   -0.66056   0.07957  0.11540  0.21476  0.06513 -0.10857 -0.07852
2025/10/27 02:15:07.000   22.305664817  114.180013493    73.3882   5  26   1.7464   2.3834   5.9985   1.0490  -2.2404  -0.9233   0.00    0.0   -0.06426   -0.34555   -0.30867   0.07717  0.10196  0.21059  0.05301 -0.09466 -0.06498
2025/10/27 02:15:08.000   22.305714073  114.180217435    40.5752   5  26   1.7685   2.5929   6.0861   1.3123  -2.4994  -1.3871   0.00    0.0    0.20006   -0.04293    0.53125   0.07958  0.11540  0.21478  0.06513 -0.10858 -0.07854
2025/10/27 02:15:09.000   22.305718582  114.180230962    36.6103   5  26   1.7686   2.5929   6.0867   1.3123  -2.4996  -1.3875   0.00    0.0   -0.05304   -0.46036    0.27180   0.07958  0.11539  0.21480  0.06513 -0.10859 -0.07856
2025/10/27 02:15:10.000   22.305710950  114.180194967    45.6607   5  26   1.7687   2.5929   6.0873   1.3123  -2.4998  -1.3879   0.00    0.0   -0.06866   -0.20748    0.07768   0.07958  0.11539  0.21481  0.06512 -0.10860 -0.07857
2025/10/27 02:15:11.000   22.305631169  114.180103476    64.2755   5  26   1.8083   2.4312   6.5308   1.1785  -2.4095  -1.7375   0.00    0.0   -0.03164   -0.20955   -0.13484   0.07290  0.09672  0.19431  0.04327 -0.07745 -0.05386
2025/10/27 02:15:12.000   22.305620062  114.180153651    51.2099   5  26   1.7560   2.4187   6.1574   1.0967  -2.2522  -1.4243   0.00    0.0   -0.20342   -0.26981    0.00047   0.07254  0.09757  0.20039  0.04017 -0.07313 -0.06031
2025/10/27 02:15:13.000   22.305691650  114.180240570    36.0258   5  25   1.8457   2.5929   6.2933   1.3166  -2.5072  -1.6635   0.00    0.0   -0.15619   -0.66165    0.62135   0.08349  0.11543  0.22455  0.06452 -0.10769 -0.08847
2025/10/27 02:15:14.000   22.305559008  114.180005817    86.3970   5  28   1.5939   2.1930   5.4911   0.9471  -1.6373  -0.7982   0.00    0.0   -0.18275   -0.05371   -0.03205   0.07057  0.09252  0.18894  0.04646 -0.06903 -0.05711
2025/10/27 02:15:15.000   22.305668337  114.180320178    32.3995   5  26   1.7691   2.5927   6.0904   1.3123  -2.5009  -1.3900   0.00    0.0   -0.41202   -0.14246    0.29339   0.07959  0.11539  0.21486  0.06511 -0.10862 -0.07863
2025/10/27 02:15:16.000   22.305682388  114.180316329    23.6848   5  26   1.7691   2.5927   6.0910   1.3123  -2.5011  -1.3904   0.00    0.0    0.09198   -0.39628   -0.23410   0.07959  0.11539  0.21487  0.06511 -0.10863 -0.07864
2025/10/27 02:15:17.000   22.305681480  114.180290803    24.6905   5  26   1.7692   2.5927   6.0916   1.3123  -2.5013  -1.3908   0.00    0.0   -0.13296   -0.24998    0.19823   0.07959  0.11538  0.21488  0.06511 -0.10864 -0.07865
2025/10/27 02:15:18.000   22.305598050  114.180074173    53.3571   5  28   1.6699   2.1151   5.6658   0.9691  -1.7092  -0.9168   0.00    0.0   -0.16012   -0.33174   -0.05178   0.06954  0.08650  0.18768  0.03886 -0.06213 -0.04790
2025/10/27 02:15:19.000   22.305680891  114.180205076    42.1388   5  28   1.6630   2.3104   5.7121   1.1167  -2.0896  -1.3812   0.00    0.0   -0.45156   -0.68291    0.63852   0.07404  0.10002  0.19828  0.05541 -0.08462 -0.07030
2025/10/27 02:15:20.000   22.305687955  114.180303241    18.9265   5  26   1.7695   2.5926   6.0934   1.3123  -2.5019  -1.3921   0.00    0.0   -0.43345   -0.17632    0.23158   0.07960  0.11538  0.21492  0.06510 -0.10865 -0.07868
2025/10/27 02:15:21.000   22.305661616  114.180171725    44.9088   5  28   1.7353   2.1480   5.4969   1.1393  -1.5972  -1.1441   0.00    0.0   -0.44999   -0.44638    0.46743   0.07694  0.09114  0.19123  0.05396 -0.07035 -0.06708
2025/10/27 02:15:22.000   22.305659588  114.180215595    29.6748   5  28   1.6419   2.1445   5.7172   0.9653  -1.9100  -1.1772   0.00    0.0    0.08536   -0.46306   -0.45340   0.07257  0.09468  0.19967  0.04901 -0.08124 -0.06451
2025/10/27 02:15:23.000   22.305655110  114.180190973    33.5676   5  28   1.6420   2.1445   5.7178   0.9652  -1.9101  -1.1775   0.00    0.0   -0.16897   -0.47297    0.43558   0.07258  0.09468  0.19968  0.04901 -0.08125 -0.06452
2025/10/27 02:15:24.000   22.305640965  114.180137794    42.5671   5  28   1.6420   2.1444   5.7183   0.9651  -1.9103  -1.1778   0.00    0.0   -0.02982   -0.12607   -0.13280   0.07258  0.09467  0.19969  0.04900 -0.08125 -0.06453
2025/10/27 02:15:25.000   22.305649580  114.180162736    38.4458   5  28   1.6421   2.1444   5.7188   0.9650  -1.9104  -1.1781   0.00    0.0   -0.18302   -0.53263    0.12504   0.07258  0.09467  0.19970  0.04900 -0.08125 -0.06453
2025/10/27 02:15:26.000   22.305669269  114.180212755    28.0139   5  28   1.6421   2.1443   5.7194   0.9650  -1.9105  -1.1784   0.00    0.0   -0.56504   -0.77359    0.54280   0.07258  0.09467  0.19971  0.04899 -0.08125 -0.06454
2025/10/27 02:15:27.000   22.305674319  114.180236419    24.2753   5  28   1.6422   2.1443   5.7199   0.9649  -1.9107  -1.1787   0.00    0.0   -0.14242   -0.60369   -0.17939   0.07258  0.09467  0.19971  0.04898 -0.08126 -0.06455
2025/10/27 02:15:28.000   22.305618221  114.179948257    72.2438   5  29   1.6308   1.9201   5.4846   0.8638  -1.4489  -1.0371   0.00    0.0    0.09658   -0.57978   -0.46349   0.07062  0.08256  0.18700  0.04029 -0.05791 -0.05471
2025/10/27 02:15:29.000   22.305613953  114.179934972    75.5736   5  29   1.6309   1.9201   5.4851   0.8637  -1.4491  -1.0374   0.00    0.0   -0.15688   -0.51014   -0.24323   0.07062  0.08255  0.18700  0.04028 -0.05791 -0.05472
2025/10/27 02:15:30.000   22.305663002  114.180213865    24.2978   5  28   1.6424   2.1442   5.7216   0.9646  -1.9110  -1.1796   0.00    0.0   -0.39008   -0.71182   -0.09311   0.07258  0.09466  0.19974  0.04897 -0.08126 -0.06457
2025/10/27 02:15:31.000   22.305610417  114.179938488    71.1527   5  29   1.6310   1.9201   5.4862   0.8635  -1.4494  -1.0380   0.00    0.0   -0.16561   -0.52129   -0.43985   0.07062  0.08255  0.18702  0.04027 -0.05791 -0.05474
2025/10/27 02:15:32.000   22.305657427  114.180197627    24.0216   5  29   1.6415   2.0654   5.4945   0.9817  -1.6529  -1.2192   0.00    0.0   -0.32075   -0.81236    0.04646   0.07258  0.08885  0.19083  0.04889 -0.06839 -0.06450
2025/10/27 02:15:33.000   22.305655608  114.180199233    22.5952   5  29   1.6415   2.0653   5.4950   0.9816  -1.6530  -1.2195   0.00    0.0   -0.68227   -0.86716    0.33017   0.07258  0.08885  0.19084  0.04889 -0.06839 -0.06451
2025/10/27 02:15:34.000   22.305595231  114.179930835    64.9696   5  30   1.6287   1.8703   5.3152   0.8853  -1.2287  -1.0961   0.00    0.0   -0.51539   -0.67313    0.01829   0.07053  0.07935  0.18172  0.04128 -0.04846 -0.05623
2025/10/27 02:15:35.000   22.305647817  114.180184721    22.1259   5  29   1.6416   2.0652   5.4960   0.9815  -1.6532  -1.2201   0.00    0.0   -0.61675   -0.84507    0.09409   0.07259  0.08884  0.19085  0.04888 -0.06840 -0.06452
2025/10/27 02:15:36.000   22.305643570  114.180181009    21.6640   5  29   1.6417   2.0652   5.4966   0.9814  -1.6534  -1.2204   0.00    0.0   -0.40522   -0.72300   -0.15279   0.07259  0.08884  0.19086  0.04887 -0.06840 -0.06453
2025/10/27 02:15:37.000   22.305636244  114.180163536    23.5206   5  30   1.6289   1.8703   5.3168   0.8850  -1.2293  -1.0970   0.00    0.0   -0.54011   -0.79223    0.49140   0.07053  0.07935  0.18174  0.04127 -0.04847 -0.05626
2025/10/27 02:15:38.000   22.305631569  114.180153544    23.6520   5  30   1.6289   1.8702   5.3173   0.8849  -1.2294  -1.0973   0.00    0.0   -0.32240   -0.33852   -0.73638   0.07053  0.07935  0.18175  0.04126 -0.04847 -0.05627
2025/10/27 02:15:39.000   22.305629353  114.180155130    22.0035   5  29   1.6419   2.0651   5.4981   0.9811  -1.6537  -1.2213   0.00    0.0   -0.48518   -0.98429    0.03106   0.07259  0.08883  0.19089  0.04886 -0.06841 -0.06456
2025/10/27 02:15:40.000   22.305543255  114.180056319    40.0016   5  31   1.5167   1.7958   5.2140   0.6873  -0.9824  -0.7631   0.00    0.0   -0.49702   -0.62796   -0.42623   0.06604  0.07572  0.17782  0.03338 -0.03818 -0.04728
2025/10/27 02:15:41.000   22.305526080  114.180037048    42.1556   5  31   1.5168   1.7958   5.2143   0.6872  -0.9823  -0.7632   0.00    0.0   -0.37588   -0.96384   -0.38089   0.06604  0.07572  0.17783  0.03337 -0.03818 -0.04729
2025/10/27 02:15:42.000   22.305616161  114.180116593    24.1729   5  30   1.6292   1.8701   5.3193   0.8845  -1.2301  -1.0986   0.00    0.0   -0.17535   -0.33156   -0.23705   0.07054  0.07934  0.18178  0.04124 -0.04849 -0.05630
2025/10/27 02:15:43.000   22.305534590  114.180031994    40.0676   5  30   1.5209   1.9595   5.3551   0.7474  -1.3853  -0.8470   0.00    0.0   -0.14816   -0.77145   -0.48951   0.06696  0.08277  0.18424  0.03849 -0.05540 -0.05261
2025/10/27 02:15:44.000   22.305609010  114.180098754    24.4450   5  30   1.6293   1.8701   5.3204   0.8843  -1.2304  -1.0992   0.00    0.0   -0.26721   -0.88132   -0.09322   0.07054  0.07934  0.18179  0.04122 -0.04849 -0.05632
2025/10/27 02:15:45.000   22.305542825  114.180025967    37.2754   5  31   1.5170   1.7957   5.2157   0.6867  -0.9822  -0.7634   0.00    0.0   -0.18601   -1.05535   -0.06709   0.06604  0.07571  0.17783  0.03334 -0.03817 -0.04730
2025/10/27 02:15:46.000   22.305523432  114.179984715    39.6700   5  32   1.4838   1.7484   5.1975   0.5848  -0.8859  -0.6665   0.00    0.0   -0.11540   -0.71810   -0.40935   0.06276  0.07250  0.17356  0.02573 -0.02473 -0.03795
2025/10/27 02:15:47.000   22.305563022  114.180013853    31.8434   5  31   1.5816   1.8087   5.2907   0.7716  -1.1144  -0.9923   0.00    0.0    0.20151   -0.62555   -0.29810   0.06579  0.07481  0.17589  0.03203 -0.03372 -0.04476
2025/10/27 02:15:48.000   22.305601403  114.180061128    24.7729   5  30   1.6295   1.8699   5.3224   0.8839  -1.2310  -1.1004   0.00    0.0   -0.01871   -0.79823    0.39320   0.07054  0.07933  0.18182  0.04120 -0.04851 -0.05635
2025/10/27 02:15:49.000   22.305563063  114.180002580    30.7815   5  31   1.5817   1.8087   5.2916   0.7714  -1.1145  -0.9928   0.00    0.0   -0.04043   -0.68493    0.02016   0.06579  0.07481  0.17589  0.03201 -0.03372 -0.04477
2025/10/27 02:15:50.000   22.305605188  114.180046960    24.4549   5  30   1.6296   1.8699   5.3235   0.8837  -1.2313  -1.1010   0.00    0.0    0.12652   -0.86650    0.09764   0.07054  0.07933  0.18183  0.04119 -0.04851 -0.05637
2025/10/27 02:15:51.000   22.305605333  114.180040556    24.5723   5  30   1.6297   1.8699   5.3240   0.8836  -1.2315  -1.1013   0.00    0.0    0.12702   -0.64190   -0.16245   0.07054  0.07933  0.18184  0.04118 -0.04852 -0.05638
2025/10/27 02:15:52.000   22.305585856  114.180019537    28.4474   5  30   1.5456   1.8278   5.3574   0.6082  -0.7414  -0.9699   0.00    0.0    0.22294   -0.85830    0.29585   0.06826  0.07712  0.18449  0.02921 -0.02705 -0.05554
2025/10/27 02:15:53.000   22.305575882  114.179982949    29.6533   5  31   1.5125   1.7821   5.3386   0.4903  -0.6049  -0.8925   0.00    0.0    0.41265   -0.69103   -0.32718   0.06459  0.07439  0.17936  0.02009  0.01213 -0.04616
2025/10/27 02:15:54.000   22.305583235  114.179980440    29.3726   5  31   1.5125   1.7821   5.3388   0.4901  -0.6047  -0.8924   0.00    0.0    0.48124   -0.18409   -0.42681   0.06459  0.07440  0.17935  0.02008  0.01215 -0.04616
2025/10/27 02:15:55.000   22.305593654  114.179977790    28.0767   5  31   1.5126   1.7821   5.3390   0.4899  -0.6045  -0.8923   0.00    0.0    0.23041   -0.66442   -0.16263   0.06459  0.07440  0.17935  0.02007  0.01217 -0.04616
2025/10/27 02:15:56.000   22.305589260  114.179967457    30.1576   5  30   1.5552   1.9173   5.4592  -0.1257   0.6630  -1.0988   0.00    0.0    0.34495   -0.82876   -0.11841   0.06596  0.07776  0.18286  0.00994  0.03091 -0.05107
2025/10/27 02:15:57.000   22.305595320  114.179972818    30.9024   5  31   1.5127   1.7822   5.3395   0.4895  -0.6041  -0.8921   0.00    0.0    0.38074   -0.53114   -0.10438   0.06458  0.07440  0.17934  0.02004  0.01220 -0.04615
2025/10/27 02:15:58.000   22.305611269  114.179973256    29.9376   5  31   1.5127   1.7822   5.3397   0.4893  -0.6039  -0.8921   0.00    0.0    0.56922   -0.49716   -0.29743   0.06458  0.07440  0.17934  0.02003  0.01222 -0.04615
2025/10/27 02:15:59.000   22.305632560  114.179983478    29.1665   5  30   1.5554   1.9174   5.4598  -0.1289   0.6635  -1.0988   0.00    0.0    0.73750   -0.29375    0.64715   0.06596  0.07776  0.18284  0.00986  0.03093 -0.05107
2025/10/27 02:16:00.000   22.305639539  114.180014792    32.6881   5  30   1.5555   1.9174   5.4600  -0.1300   0.6636  -1.0988   0.00    0.0    0.47990   -0.31098   -0.58552   0.06596  0.07776  0.18284  0.00983  0.03093 -0.05106
2025/10/27 02:16:01.000   22.305653045  114.180016734    33.4907   5  31   1.5129   1.7822   5.3404   0.4887  -0.6033  -0.8918   0.00    0.0    0.51239   -0.23954   -0.15578   0.06458  0.07440  0.17933  0.01999  0.01228 -0.04614
2025/10/27 02:16:02.000   22.305659229  114.180009372    36.7668   5  30   1.5997   1.8156   5.3453   0.2423  -0.6644  -0.8237   0.00    0.0    0.59618   -0.21131   -0.55031   0.06663  0.07489  0.17942  0.01609  0.01421 -0.04718
2025/10/27 02:16:03.000   22.305663562  114.180026628    37.6295   5  31   1.5130   1.7823   5.3408   0.4884  -0.6029  -0.8917   0.00    0.0    0.58208    0.20116   -1.31001   0.06458  0.07440  0.17932  0.01996  0.01231 -0.04613
2025/10/27 02:16:04.000   22.305651396  114.180050216    40.4737   5  30   1.5245   1.8554   5.7153   0.5784  -1.1883  -1.0837   0.00    0.0    0.41200    0.94833   -0.31854   0.06482  0.07597  0.18251  0.02200 -0.01926 -0.04814
2025/10/27 02:16:05.000   22.305663902  114.180058970    38.8458   5  30   1.5245   1.8554   5.7155   0.5782  -1.1882  -1.0837   0.00    0.0    0.34771    0.50869   -0.04680   0.06482  0.07597  0.18250  0.02199 -0.01924 -0.04814
2025/10/27 02:16:06.000   22.305670834  114.180079754    33.1814   5  31   1.5131   1.7823   5.3415   0.4878  -0.6023  -0.8914   0.00    0.0    0.51323    0.56758    0.67138   0.06458  0.07440  0.17931  0.01992  0.01236 -0.04612
2025/10/27 02:16:07.000   22.305684007  114.180071723    39.2974   5  30   1.5964   1.8076   6.1644   0.6690  -1.3436  -1.5096   0.00    0.0   -0.03775    0.22526    0.20827   0.06487  0.07422  0.17705  0.02565 -0.03332 -0.04117
2025/10/27 02:16:08.000   22.305693566  114.180123401    31.3583   5  32   1.4849   1.7483   5.2040   0.5818  -0.8833  -0.6656   0.00    0.0    0.61721    0.13557   -0.21267   0.06275  0.07249  0.17353  0.02553 -0.02454 -0.03793
2025/10/27 02:16:09.000   22.305700719  114.180132594    32.3896   5  32   1.4850   1.7483   5.2043   0.5816  -0.8832  -0.6656   0.00    0.0    0.41153    0.23131    0.20743   0.06275  0.07249  0.17353  0.02552 -0.02454 -0.03792
2025/10/27 02:16:10.000   22.305726933  114.180140069    29.3495   5  32   1.4850   1.7483   5.2046   0.5815  -0.8830  -0.6656   0.00    0.0    0.42819    0.47359   -0.42923   0.06275  0.07249  0.17353  0.02551 -0.02453 -0.03792
2025/10/27 02:16:11.000   22.305733398  114.180163659    22.3954   5  31   1.5228   1.7509   5.2100   0.6082  -0.8952  -0.7216   0.00    0.0    0.38685    0.60072   -0.49574   0.06355  0.07249  0.17631  0.02565 -0.02404 -0.03353
2025/10/27 02:16:12.000   22.305741070  114.180176760    23.3986   5  31   1.5228   1.7509   5.2103   0.6080  -0.8951  -0.7216   0.00    0.0    0.33484    0.53083    0.51827   0.06355  0.07249  0.17631  0.02564 -0.02403 -0.03353
2025/10/27 02:16:13.000   22.305747286  114.180180584    22.3059   5  31   1.5640   1.7499   5.5908   0.5488  -0.7920  -1.2013   0.00    0.0    0.41105    0.30094    0.42278   0.06464  0.07265  0.17358  0.02394 -0.02406 -0.03880
2025/10/27 02:16:14.000   22.305750142  114.180184251    22.4211   5  32   1.4852   1.7483   5.2057   0.5809  -0.8825  -0.6654   0.00    0.0    0.41704    0.60019   -0.49411   0.06275  0.07249  0.17352  0.02547 -0.02449 -0.03792
2025/10/27 02:16:15.000   22.305760825  114.180179114    22.4885   5  32   1.4853   1.7483   5.2060   0.5808  -0.8824  -0.6654   0.00    0.0    0.40212    0.42767    0.19667   0.06275  0.07249  0.17352  0.02546 -0.02449 -0.03792
2025/10/27 02:16:16.000   22.305760052  114.180177398    23.0140   5  32   1.4853   1.7483   5.2063   0.5807  -0.8823  -0.6654   0.00    0.0    0.57574    0.39317    0.34850   0.06275  0.07249  0.17352  0.02545 -0.02448 -0.03792
2025/10/27 02:16:17.000   22.305735833  114.180124632    19.0823   5  29   1.5383   2.1057   5.4674   0.5847   1.0427  -0.6145   0.00    0.0    0.68705    0.51976    0.47911   0.06464  0.08520  0.18178  0.02599  0.04261 -0.03754
2025/10/27 02:16:18.000   22.305754003  114.180180906    28.2807   5  30   1.5172   1.9262   5.2902   0.3542  -0.2969  -0.8537   0.00    0.0    0.48552    0.87475   -0.05457   0.06368  0.08025  0.17817  0.01890  0.02799 -0.04255
2025/10/27 02:16:19.000   22.305762623  114.180190435    29.5419   5  30   1.5186   1.8018   5.2177   0.5993  -0.8369  -0.5888   0.00    0.0    0.27948    0.11754   -0.49595   0.06484  0.07675  0.17726  0.02542  0.01043 -0.03257
2025/10/27 02:16:20.000   22.305768908  114.180181871    26.7600   5  30   1.5174   1.9262   5.2908   0.3536  -0.2958  -0.8537   0.00    0.0    0.66189   -0.01921    0.00342   0.06368  0.08025  0.17816  0.01887  0.02801 -0.04255
2025/10/27 02:16:21.000   22.305761016  114.180213668    27.9102   5  30   1.5139   1.8395   5.3490   0.4759  -0.5130  -0.8925   0.00    0.0    0.76948    0.45500   -0.35311   0.06471  0.07970  0.18250  0.01639  0.03376 -0.04762
2025/10/27 02:16:22.000   22.305770111  114.180166094    28.0913   5  30   1.5188   1.8018   5.2184   0.5989  -0.8364  -0.5890   0.00    0.0    0.76500    0.89336    0.00840   0.06484  0.07676  0.17725  0.02540  0.01051 -0.03258
2025/10/27 02:16:23.000   22.305764092  114.180152302    29.6335   5  31   1.5204   1.8501   5.3190   0.7292  -0.3518  -0.3055   0.00    0.0    0.70183    0.51323   -0.70844   0.06398  0.07544  0.17559  0.03011 -0.00556 -0.03315
2025/10/27 02:16:24.000   22.305767144  114.180174076    29.5671   5  30   1.5189   1.8018   5.2190   0.5987  -0.8360  -0.5891   0.00    0.0    0.34527    0.59325    0.26421   0.06484  0.07676  0.17724  0.02538  0.01057 -0.03259
2025/10/27 02:16:25.000   22.305783137  114.180174361    23.7692   5  30   1.4877   1.9612   5.3356   0.6290  -1.2701  -0.7282   0.00    0.0    0.26935    1.01025    0.33200   0.06309  0.08229  0.17937  0.02827 -0.03254 -0.04143
2025/10/27 02:16:26.000   22.305790580  114.180185626    26.5875   5  31   1.4878   1.8958   5.3358   0.6257  -1.2742  -0.7282   0.00    0.0    0.48586    0.67835   -0.55224   0.06308  0.07776  0.17781  0.02876 -0.04113 -0.04112
2025/10/27 02:16:27.000   22.305792637  114.180173142    27.6101   5  30   1.4879   1.9612   5.3361   0.6288  -1.2696  -0.7281   0.00    0.0    0.52155    0.73375   -0.12824   0.06309  0.08229  0.17936  0.02825 -0.03251 -0.04142
2025/10/27 02:16:28.000   22.305794464  114.180193874    25.3232   5  31   1.4879   1.8958   5.3363   0.6254  -1.2739  -0.7282   0.00    0.0    0.43283    0.83698   -0.08679   0.06308  0.07776  0.17781  0.02874 -0.04111 -0.04112
2025/10/27 02:16:29.000   22.305799969  114.180177990    25.0162   5  30   1.4880   1.9612   5.3366   0.6286  -1.2692  -0.7280   0.00    0.0    0.79087    0.95624   -0.20652   0.06309  0.08229  0.17936  0.02823 -0.03248 -0.04142
2025/10/27 02:16:30.000   22.305802340  114.180192820    23.7960   5  31   1.4880   1.8957   5.3368   0.6252  -1.2736  -0.7281   0.00    0.0    0.83028    1.13045    0.08569   0.06308  0.07776  0.17780  0.02872 -0.04110 -0.04111
2025/10/27 02:16:31.000   22.305811282  114.180192556    21.2323   5  31   1.4880   1.8957   5.3370   0.6251  -1.2734  -0.7281   0.00    0.0    0.73810    1.01589   -0.32582   0.06308  0.07776  0.17780  0.02871 -0.04109 -0.04111
2025/10/27 02:16:32.000   22.305818966  114.180200246    21.6253   5  31   1.4881   1.8957   5.3372   0.6249  -1.2733  -0.7280   0.00    0.0    0.49453    0.73834   -0.05586   0.06308  0.07776  0.17779  0.02870 -0.04108 -0.04111
2025/10/27 02:16:33.000   22.305820950  114.180212121    21.9028   5  31   1.4881   1.8957   5.3375   0.6248  -1.2731  -0.7280   0.00    0.0    0.38835    0.82870    0.43990   0.06308  0.07776  0.17779  0.02870 -0.04107 -0.04111
2025/10/27 02:16:34.000   22.305820826  114.180213185    20.8204   5  31   1.4882   1.8957   5.3377   0.6247  -1.2730  -0.7280   0.00    0.0    0.37405    0.81835   -1.41408   0.06308  0.07775  0.17779  0.02869 -0.04106 -0.04111
2025/10/27 02:16:35.000   22.305828034  114.180217549    21.3954   5  31   1.4882   1.8956   5.3380   0.6246  -1.2728  -0.7279   0.00    0.0    0.33908    1.05475   -0.45663   0.06308  0.07775  0.17778  0.02868 -0.04106 -0.04110
2025/10/27 02:16:36.000   22.305826975  114.180215211    22.9512   5  31   1.4883   1.8956   5.3382   0.6244  -1.2727  -0.7279   0.00    0.0    0.39813    1.08118    0.13804   0.06308  0.07775  0.17778  0.02867 -0.04105 -0.04110
2025/10/27 02:16:37.000   22.305828898  114.180232988    21.4365   5  29   1.6279   1.9793   5.4765   0.8441  -1.5178  -1.0662   0.00    0.0    0.06363    1.31969   -0.05317   0.06850  0.08129  0.18334  0.03633 -0.05066 -0.04537
2025/10/27 02:16:38.000   22.305823482  114.180241200    20.4857   5  30   1.5918   1.9792   5.4729   0.8431  -1.5181  -1.0997   0.00    0.0   -0.08926    0.70332    0.25482   0.06656  0.08129  0.18155  0.03640 -0.05057 -0.04972
2025/10/27 02:16:39.000   22.305815463  114.180246948    22.2350   5  30   1.5918   1.9792   5.4733   0.8430  -1.5181  -1.0999   0.00    0.0   -0.50662    0.82561   -0.79570   0.06656  0.08128  0.18155  0.03639 -0.05057 -0.04972
2025/10/27 02:16:40.000   22.305808846  114.180242158    22.5608   5  30   1.5919   1.9792   5.4737   0.8429  -1.5182  -1.1001   0.00    0.0   -0.41226    0.92526    0.14808   0.06656  0.08128  0.18155  0.03638 -0.05057 -0.04973
2025/10/27 02:16:41.000   22.305803741  114.180254424    24.2246   5  30   1.5919   1.9792   5.4741   0.8428  -1.5182  -1.1003   0.00    0.0   -0.82143    0.63223   -0.15772   0.06656  0.08128  0.18155  0.03638 -0.05057 -0.04973
2025/10/27 02:16:42.000   22.305789366  114.180265862    23.1433   5  30   1.5920   1.9791   5.4746   0.8427  -1.5182  -1.1005   0.00    0.0   -0.49595    0.71343   -0.54335   0.06656  0.08128  0.18155  0.03637 -0.05056 -0.04973
2025/10/27 02:16:43.000   22.305785254  114.180254416    24.4747   5  30   1.5920   1.9791   5.4750   0.8426  -1.5182  -1.1007   0.00    0.0   -0.60450    0.90781    0.88438   0.06656  0.08128  0.18156  0.03636 -0.05056 -0.04973
2025/10/27 02:16:44.000   22.305778945  114.180253432    24.4813   5  30   1.5921   1.9791   5.4754   0.8425  -1.5183  -1.1010   0.00    0.0   -0.49888    0.31730    0.67901   0.06656  0.08128  0.18156  0.03635 -0.05056 -0.04974
2025/10/27 02:16:45.000   22.305778448  114.180241462    29.3533   5  30   1.5921   1.9791   5.4758   0.8425  -1.5183  -1.1012   0.00    0.0   -0.72455    0.77797    0.15840   0.06656  0.08128  0.18156  0.03635 -0.05056 -0.04974
2025/10/27 02:16:46.000   22.305771614  114.180225426    30.7604   5  30   1.5922   1.9790   5.4763   0.8424  -1.5183  -1.1014   0.00    0.0   -1.01322    0.30221   -0.63824   0.06656  0.08128  0.18156  0.03634 -0.05055 -0.04974
2025/10/27 02:16:47.000   22.305765688  114.180215078    36.0362   5  30   1.5923   1.9790   5.4767   0.8423  -1.5183  -1.1016   0.00    0.0   -0.92321    0.22695   -0.04723   0.06656  0.08128  0.18156  0.03633 -0.05055 -0.04974
2025/10/27 02:16:48.000   22.305769068  114.180217166    41.0548   5  28   1.6936   2.2721   5.6735   1.1120  -1.8791  -1.1847   0.00    0.0   -0.49114    0.39331   -0.07557   0.06995  0.09008  0.18540  0.04358 -0.06296 -0.05352
2025/10/27 02:16:49.000   22.305759190  114.180193871    48.2124   5  29   1.6727   2.0452   5.4901   0.9867  -1.4538  -1.0119   0.00    0.0   -1.01872   -0.16388    0.60969   0.06940  0.08233  0.18158  0.03972 -0.05096 -0.05037
2025/10/27 02:16:50.000   22.305740650  114.180187046    49.6890   5  29   1.6728   2.0451   5.4905   0.9866  -1.4539  -1.0121   0.00    0.0   -0.71352    0.12131    0.26095   0.06940  0.08233  0.18158  0.03972 -0.05096 -0.05037
2025/10/27 02:16:51.000   22.305731516  114.180215184    44.8474   5  28   1.6938   2.2721   5.6747   1.1119  -1.8793  -1.1856   0.00    0.0   -1.17356    0.08850   -0.15536   0.06995  0.09007  0.18540  0.04356 -0.06295 -0.05354
2025/10/27 02:16:52.000   22.305726759  114.180185756    50.5609   5  28   1.6939   2.2721   5.6751   1.1119  -1.8794  -1.1859   0.00    0.0   -0.54254   -0.14233    0.30532   0.06995  0.09007  0.18540  0.04356 -0.06295 -0.05354
2025/10/27 02:16:53.000   22.305720418  114.180176647    51.5336   5  27   1.6941   2.4165   6.0178   1.1051  -2.2756  -1.1708   0.00    0.0   -0.56479    0.26014   -0.22111   0.06999  0.09660  0.19385  0.04252 -0.07707 -0.05218
2025/10/27 02:16:54.000   22.305701917  114.180186839    49.5079   5  27   1.6941   2.4165   6.0182   1.1051  -2.2757  -1.1711   0.00    0.0   -0.74631   -0.08829   -0.31614   0.06999  0.09660  0.19385  0.04251 -0.07706 -0.05219
2025/10/27 02:16:55.000   22.305690532  114.180176941    51.5169   5  27   1.6942   2.4164   6.0187   1.1051  -2.2758  -1.1714   0.00    0.0   -0.82443   -0.08194   -0.58950   0.06999  0.09660  0.19385  0.04251 -0.07706 -0.05219
2025/10/27 02:16:56.000   22.305672154  114.180174405    53.1061   5  26   1.7628   2.4172   6.1959   1.0911  -2.2554  -1.4450   0.00    0.0   -0.11139    0.12386   -0.99298   0.07249  0.09754  0.19994  0.03938 -0.07261 -0.06040
2025/10/27 02:16:57.000   22.305636965  114.179963062    81.8244   5  28   1.6755   2.1134   5.7087   0.9622  -1.7155  -0.9446   0.00    0.0    0.12683   -0.51041    0.13177   0.06953  0.08641  0.18764  0.03820 -0.06194 -0.04831
2025/10/27 02:16:58.000   22.305653293  114.179978476    77.6925   5  28   1.6755   2.1134   5.7092   0.9621  -1.7156  -0.9449   0.00    0.0    0.33098    0.09332   -0.64336   0.06953  0.08641  0.18763  0.03819 -0.06193 -0.04831
2025/10/27 02:16:59.000   22.305641431  114.180008533    74.7065   5  28   1.6756   2.1134   5.7096   0.9620  -1.7156  -0.9451   0.00    0.0    0.08668   -0.10637   -0.14199   0.06953  0.08641  0.18763  0.03818 -0.06193 -0.04832
2025/10/27 02:17:00.000   22.305650704  114.180215863    37.3436   5  26   1.7040   2.6665   6.4306   1.0094  -2.7799  -0.9855   0.00    0.0    0.24538    0.02557   -0.92373   0.07063  0.10209  0.20389  0.03863 -0.08958 -0.04614
2025/10/27 02:17:01.000   22.305642884  114.180211440    39.8620   5  26   1.7041   2.6665   6.4308   1.0094  -2.7799  -0.9859   0.00    0.0   -0.38736   -0.13328   -0.25085   0.07063  0.10209  0.20388  0.03863 -0.08957 -0.04614
2025/10/27 02:17:02.000   22.305633055  114.180156880    56.8551   5  26   1.8194   2.4312   6.5921   1.1827  -2.4294  -1.7755   0.00    0.0   -0.59541   -1.21170    1.95818   0.07291  0.09659  0.19410  0.04266 -0.07709 -0.05419
2025/10/27 02:17:03.000   22.305617710  114.180030721    72.7169   5  28   1.6758   2.1133   5.7112   0.9617  -1.7158  -0.9462   0.00    0.0    0.08134   -0.19826   -0.01268   0.06953  0.08641  0.18763  0.03816 -0.06192 -0.04833
2025/10/27 02:17:04.000   22.305638392  114.180155612    48.8541   5  27   1.6948   2.4163   6.0226   1.1049  -2.2764  -1.1741   0.00    0.0   -0.16814   -0.08735    0.17825   0.07000  0.09659  0.19382  0.04246 -0.07703 -0.05222
2025/10/27 02:17:05.000   22.305606259  114.180010168    75.6834   5  28   1.6760   2.1133   5.7121   0.9616  -1.7159  -0.9468   0.00    0.0    0.02869   -0.07062   -0.17671   0.06953  0.08640  0.18763  0.03814 -0.06192 -0.04834
2025/10/27 02:17:06.000   22.305627504  114.180211135    42.6092   5  26   1.7634   2.4171   6.1994   1.0905  -2.2556  -1.4469   0.00    0.0    0.07985   -0.16087   -0.36564   0.07249  0.09754  0.19989  0.03930 -0.07256 -0.06041
2025/10/27 02:17:07.000   22.305623681  114.180162627    55.9568   5  27   1.7635   2.2731   5.8603   1.0945  -1.8508  -1.4547   0.00    0.0   -0.03813   -0.40569    0.78983   0.07244  0.09107  0.19175  0.04043 -0.05739 -0.06161
2025/10/27 02:17:08.000   22.305624204  114.180198914    44.6338   5  26   1.7636   2.4171   6.2001   1.0904  -2.2556  -1.4473   0.00    0.0   -0.09354   -0.20465   -0.12135   0.07249  0.09754  0.19988  0.03929 -0.07255 -0.06041
2025/10/27 02:17:09.000   22.305623197  114.180199127    38.6552   5  27   1.6952   2.4162   6.0247   1.1048  -2.2767  -1.1756   0.00    0.0   -0.32753   -0.05883   -0.40322   0.07000  0.09658  0.19381  0.04243 -0.07701 -0.05224
2025/10/27 02:17:10.000   22.305610799  114.180141659    50.3404   5  28   1.6952   2.2718   5.6827   1.1114  -1.8806  -1.1911   0.00    0.0   -0.71299   -0.45216    1.19258   0.06995  0.09005  0.18539  0.04346 -0.06291 -0.05361
2025/10/27 02:17:11.000   22.305586871  114.180188266    43.6316   5  27   1.6953   2.4161   6.0256   1.1048  -2.2769  -1.1762   0.00    0.0    0.11644   -0.48644   -0.46676   0.07000  0.09658  0.19381  0.04242 -0.07700 -0.05225
2025/10/27 02:17:12.000   22.305590136  114.180123555    53.5374   5  28   1.6953   2.2718   5.6835   1.1114  -1.8807  -1.1916   0.00    0.0   -0.17512   -0.65578    0.60620   0.06995  0.09005  0.18539  0.04345 -0.06290 -0.05362
2025/10/27 02:17:13.000   22.305585230  114.180036542    61.4108   5  29   1.6741   2.0448   5.4999   0.9850  -1.4550  -1.0182   0.00    0.0    0.09167   -0.45247   -0.14349   0.06939  0.08231  0.18159  0.03958 -0.05093 -0.05047
2025/10/27 02:17:14.000   22.305594706  114.180097198    49.0185   5  28   1.6765   2.1131   5.7158   0.9610  -1.7164  -0.9493   0.00    0.0   -0.44526   -0.87182    1.05810   0.06953  0.08640  0.18761  0.03808 -0.06190 -0.04838
2025/10/27 02:17:15.000   22.305600950  114.180121858    42.0502   5  28   1.6765   2.1131   5.7162   0.9609  -1.7165  -0.9496   0.00    0.0   -0.05133   -0.16864   -0.38234   0.06953  0.08640  0.18761  0.03808 -0.06190 -0.04838
2025/10/27 02:17:16.000   22.305616421  114.180145232    40.9700   5  29   1.5963   2.0487   5.7049   0.8110  -1.7708  -1.0439   0.00    0.0   -0.45709   -0.65028   -0.15266   0.06675  0.08523  0.18754  0.03427 -0.06131 -0.04735
2025/10/27 02:17:17.000   22.305619350  114.180133106    43.0961   5  30   1.5939   1.9782   5.4892   0.8394  -1.5190  -1.1078   0.00    0.0   -0.33436   -0.54871   -0.18114   0.06655  0.08124  0.18156  0.03612 -0.05048 -0.04982
2025/10/27 02:17:18.000   22.305615931  114.180148183    37.3726   5  29   1.5964   2.0487   5.7058   0.8108  -1.7709  -1.0443   0.00    0.0   -0.02310   -0.57096   -0.61860   0.06675  0.08523  0.18754  0.03425 -0.06130 -0.04736
2025/10/27 02:17:19.000   22.305617126  114.180146053    35.6597   5  29   1.5964   2.0486   5.7062   0.8107  -1.7709  -1.0445   0.00    0.0   -0.22338   -0.52175   -0.41866   0.06675  0.08523  0.18754  0.03424 -0.06130 -0.04736
2025/10/27 02:17:20.000   22.305613764  114.180130094    38.8610   5  30   1.5941   1.9782   5.4904   0.8391  -1.5191  -1.1084   0.00    0.0   -0.38831   -0.44809   -0.68912   0.06655  0.08124  0.18156  0.03610 -0.05047 -0.04983
2025/10/27 02:17:21.000   22.305612648  114.180131771    36.5008   5  30   1.5941   1.9781   5.4908   0.8390  -1.5191  -1.1087   0.00    0.0   -0.14307   -0.32895   -0.22415   0.06655  0.08124  0.18156  0.03610 -0.05047 -0.04983
2025/10/27 02:17:22.000   22.305608044  114.180132670    33.5088   5  30   1.5942   1.9781   5.4913   0.8389  -1.5192  -1.1089   0.00    0.0   -0.02430   -0.57539   -0.64130   0.06655  0.08124  0.18156  0.03609 -0.05047 -0.04983
2025/10/27 02:17:23.000   22.305607852  114.180131063    32.7926   5  30   1.5942   1.9781   5.4917   0.8388  -1.5192  -1.1091   0.00    0.0   -0.20740   -0.62412   -0.19879   0.06655  0.08124  0.18156  0.03608 -0.05046 -0.04984
2025/10/27 02:17:24.000   22.305607324  114.180130548    32.4469   5  30   1.5943   1.9781   5.4921   0.8387  -1.5192  -1.1093   0.00    0.0   -0.28045   -0.70175   -0.07129   0.06655  0.08124  0.18156  0.03608 -0.05046 -0.04984
2025/10/27 02:17:25.000   22.305560741  114.179892478    70.2752   5  31   1.5867   1.8075   5.3341   0.7604  -1.1206  -1.0135   0.00    0.0   -0.15470   -0.56000   -0.87877   0.06578  0.07476  0.17599  0.03129 -0.03358 -0.04508
2025/10/27 02:17:26.000   22.305558994  114.179888952    69.3622   5  31   1.5868   1.8075   5.3345   0.7603  -1.1206  -1.0137   0.00    0.0   -0.27337   -0.69837    0.18054   0.06578  0.07475  0.17599  0.03128 -0.03358 -0.04508
2025/10/27 02:17:27.000   22.305600519  114.180130314    28.1607   5  31   1.5868   1.8075   5.3350   0.7602  -1.1207  -1.0139   0.00    0.0   -0.11139   -0.65358   -0.39749   0.06578  0.07475  0.17599  0.03127 -0.03358 -0.04509
2025/10/27 02:17:28.000   22.305596471  114.180116650    28.4740   5  31   1.5869   1.8075   5.3354   0.7600  -1.1208  -1.0141   0.00    0.0   -0.21895   -0.49890   -0.27102   0.06578  0.07475  0.17599  0.03127 -0.03358 -0.04509
2025/10/27 02:17:29.000   22.305592808  114.180104454    29.6932   5  31   1.5869   1.8074   5.3358   0.7599  -1.1209  -1.0143   0.00    0.0   -0.28876   -0.48995    0.04406   0.06578  0.07475  0.17599  0.03126 -0.03358 -0.04509
2025/10/27 02:17:30.000   22.305591948  114.180101962    28.7219   5  31   1.5870   1.8074   5.3363   0.7598  -1.1209  -1.0145   0.00    0.0   -0.22819   -0.59003   -0.63955   0.06578  0.07475  0.17599  0.03125 -0.03358 -0.04510
2025/10/27 02:17:31.000   22.305584221  114.180088427    29.7654   5  31   1.5870   1.8074   5.3367   0.7597  -1.1210  -1.0148   0.00    0.0   -0.20216   -0.58404   -0.34027   0.06578  0.07475  0.17599  0.03124 -0.03357 -0.04510
2025/10/27 02:17:32.000   22.305573063  114.180066604    32.3152   5  31   1.5871   1.8074   5.3371   0.7596  -1.1210  -1.0150   0.00    0.0    0.03865   -0.80503   -0.30429   0.06578  0.07475  0.17599  0.03123 -0.03357 -0.04510
2025/10/27 02:17:33.000   22.305565159  114.180052454    32.2267   5  31   1.5871   1.8074   5.3375   0.7595  -1.1211  -1.0152   0.00    0.0    0.05143   -0.67629   -0.63853   0.06578  0.07475  0.17599  0.03123 -0.03357 -0.04511
2025/10/27 02:17:34.000   22.305568717  114.180045899    31.0896   5  31   1.5872   1.8074   5.3380   0.7593  -1.1211  -1.0154   0.00    0.0   -0.21285   -0.73144    0.02291   0.06578  0.07475  0.17599  0.03122 -0.03357 -0.04511
2025/10/27 02:17:35.000   22.305566588  114.180034956    32.3912   5  31   1.5872   1.8074   5.3384   0.7592  -1.1212  -1.0156   0.00    0.0   -0.93241   -1.40305    2.23678   0.06578  0.07475  0.17599  0.03121 -0.03357 -0.04511
2025/10/27 02:17:36.000   22.305565914  114.180040718    31.2653   5  31   1.5873   1.8074   5.3388   0.7591  -1.1212  -1.0158   0.00    0.0   -0.30500   -0.93552   -0.50335   0.06578  0.07475  0.17599  0.03120 -0.03357 -0.04512
2025/10/27 02:17:37.000   22.305563955  114.180037976    30.3973   5  31   1.5874   1.8074   5.3392   0.7590  -1.1213  -1.0160   0.00    0.0    0.04066   -0.65598   -0.37569   0.06578  0.07475  0.17599  0.03120 -0.03356 -0.04512
2025/10/27 02:17:38.000   22.305564230  114.180026439    29.8782   5  31   1.5874   1.8073   5.3397   0.7589  -1.1213  -1.0163   0.00    0.0    0.30267   -0.85801    0.17245   0.06578  0.07475  0.17599  0.03119 -0.03356 -0.04512
2025/10/27 02:17:39.000   22.305567771  114.180006860    33.4212   5  31   1.5875   1.8073   5.3401   0.7588  -1.1214  -1.0165   0.00    0.0    0.22066   -0.75146   -0.02664   0.06578  0.07475  0.17600  0.03118 -0.03356 -0.04513
2025/10/27 02:17:40.000   22.305567265  114.179995352    33.3009   5  31   1.5875   1.8073   5.3405   0.7586  -1.1215  -1.0167   0.00    0.0    0.57778   -0.67468   -0.17287   0.06578  0.07475  0.17600  0.03117 -0.03356 -0.04513
2025/10/27 02:17:41.000   22.305574112  114.179999090    32.6474   5  31   1.5876   1.8073   5.3409   0.7585  -1.1215  -1.0169   0.00    0.0    0.49098   -0.51774    0.32161   0.06578  0.07475  0.17600  0.03117 -0.03356 -0.04513
