<?xml version="1.0" encoding="UTF-8"?>
<kml xmlns="http://earth.google.com/kml/2.0">
    <Document>
        <name>251110_013051_Track</name>
        <description>
            exported from u-center
            http://www.u-blox.com
        </description>
        <visibility>1</visibility>
        <Style id="style5">
            <LineStyle>
                <color>7FFF0000</color>
                <width>7</width>
            </LineStyle>
        </Style>
        <Style id="style6">
            <LineStyle>
                <color>7FFFFF00</color>
                <width>7</width>
            </LineStyle>
        </Style>
        <Style id="style7">
            <LineStyle>
                <color>7F00FF00</color>
                <width>7</width>
            </LineStyle>
        </Style>
        <Style id="style8">
            <LineStyle>
                <color>7F00C0FF</color>
                <width>7</width>
            </LineStyle>
        </Style>
        <Style id="style15">
            <LineStyle>
                <color>7FC000C0</color>
                <width>7</width>
            </LineStyle>
        </Style>
        <Style id="style4">
            <LineStyle>
                <color>7F0000FF</color>
                <width>7</width>
            </LineStyle>
        </Style>
        <Placemark>
            <visibility>1</visibility>
            <styleUrl>#style7</styleUrl>
            <name>3D (absolute)</name>
            <LineString>
                <tessellate>1</tessellate>
                <extrude>true</extrude>
                <altitudeMode>absolute</altitudeMode>
                <coordinates>
                    114.180082,22.305706,21.40
                    114.180082,22.305706,21.30
                    114.180083,22.305706,21.30
                    114.180083,22.305707,21.30
                    114.180083,22.305707,21.20
                    114.180082,22.305707,21.20
                    114.180081,22.305707,21.30
                    114.180082,22.305707,21.30
                    114.180081,22.305707,21.30
                    114.180082,22.305706,21.30
                    114.180083,22.305705,21.30
                    114.180082,22.305704,21.40
                    114.180082,22.305704,21.40
                    114.180082,22.305704,21.50
                    114.180082,22.305704,21.60
                    114.180081,22.305705,21.60
                    114.180081,22.305705,21.70
                    114.180080,22.305705,21.80
                    114.180080,22.305707,21.90
                    114.180080,22.305709,21.90
                    114.180081,22.305712,22.00
                    114.180083,22.305714,21.90
                    114.180084,22.305717,22.00
                    114.180087,22.305719,22.10
                    114.180090,22.305722,22.10
                    114.180093,22.305725,22.10
                    114.180098,22.305728,22.00
                    114.180102,22.305732,22.00
                    114.180107,22.305736,21.80
                    114.180112,22.305740,21.60
                    114.180118,22.305744,21.60
                    114.180123,22.305748,21.40
                    114.180129,22.305752,21.40
                    114.180135,22.305756,21.30
                    114.180141,22.305760,21.20
                    114.180147,22.305764,21.10
                    114.180154,22.305770,21.00
                    114.180161,22.305774,20.80
                    114.180167,22.305778,20.70
                    114.180173,22.305782,20.70
                    114.180180,22.305787,20.50
                    114.180186,22.305791,20.40
                    114.180192,22.305795,20.30
                    114.180198,22.305799,20.20
                    114.180204,22.305803,20.10
                    114.180210,22.305807,20.00
                    114.180216,22.305812,19.80
                    114.180223,22.305816,19.80
                    114.180230,22.305820,19.70
                    114.180238,22.305823,19.70
                    114.180245,22.305826,19.70
                    114.180254,22.305829,19.60
                    114.180262,22.305831,19.50
                    114.180269,22.305831,19.40
                    114.180277,22.305830,19.30
                    114.180286,22.305829,19.20
                    114.180296,22.305826,19.00
                    114.180304,22.305823,18.90
                    114.180312,22.305818,18.90
                    114.180319,22.305814,18.80
                    114.180326,22.305811,18.60
                    114.180333,22.305805,18.60
                    114.180339,22.305799,18.60
                    114.180344,22.305793,18.50
                    114.180350,22.305787,18.40
                    114.180354,22.305781,18.40
                    114.180360,22.305774,18.30
                    114.180366,22.305767,18.10
                    114.180371,22.305760,18.10
                    114.180374,22.305753,18.20
                    114.180376,22.305746,18.10
                    114.180379,22.305739,18.00
                    114.180381,22.305731,17.80
                    114.180382,22.305723,17.80
                    114.180383,22.305715,17.80
                    114.180382,22.305709,17.70
                    114.180383,22.305703,17.50
                    114.180384,22.305697,17.30
                    114.180384,22.305692,17.10
                    114.180383,22.305689,16.90
                    114.180382,22.305687,16.80
                    114.180381,22.305687,16.70
                    114.180380,22.305688,16.70
                    114.180378,22.305690,17.00
                    114.180379,22.305693,16.60
                    114.180375,22.305696,16.50
                    114.180370,22.305699,16.50
                    114.180363,22.305701,16.50
                    114.180356,22.305703,16.40
                    114.180348,22.305702,16.40
                    114.180343,22.305702,16.60
                    114.180340,22.305701,16.90
                    114.180337,22.305700,17.20
                    114.180334,22.305699,17.30
                    114.180333,22.305698,17.40
                    114.180331,22.305697,17.40
                    114.180326,22.305695,17.70
                    114.180323,22.305693,18.00
                    114.180320,22.305691,18.10
                    114.180317,22.305689,18.30
                    114.180313,22.305687,18.50
                    114.180308,22.305686,18.60
                    114.180304,22.305684,18.60
                    114.180300,22.305681,18.60
                    114.180296,22.305678,18.70
                    114.180292,22.305677,18.80
                    114.180288,22.305675,18.90
                    114.180284,22.305675,18.90
                    114.180279,22.305672,19.00
                    114.180274,22.305670,19.10
                    114.180268,22.305667,19.20
                    114.180261,22.305665,19.20
                    114.180253,22.305662,19.30
                    114.180245,22.305659,19.40
                    114.180237,22.305657,19.50
                    114.180230,22.305653,19.50
                    114.180223,22.305649,19.50
                    114.180215,22.305644,19.40
                    114.180207,22.305640,19.50
                    114.180199,22.305636,19.60
                    114.180190,22.305632,19.70
                    114.180182,22.305628,19.80
                    114.180173,22.305622,19.90
                    114.180164,22.305618,19.80
                    114.180155,22.305614,19.90
                    114.180147,22.305611,19.90
                    114.180139,22.305608,19.90
                    114.180131,22.305605,19.90
                    114.180121,22.305602,19.80
                    114.180113,22.305600,19.80
                    114.180104,22.305599,19.90
                    114.180095,22.305598,19.80
                    114.180087,22.305598,19.90
                    114.180080,22.305598,19.90
                    114.180073,22.305600,20.00
                    114.180065,22.305601,20.10
                    114.180056,22.305604,20.00
                    114.180048,22.305607,20.00
                    114.180039,22.305609,20.00
                    114.180032,22.305612,20.00
                    114.180024,22.305615,20.10
                    114.180018,22.305620,20.10
                    114.180012,22.305626,20.10
                    114.180007,22.305632,20.20
                    114.180005,22.305639,20.30
                    114.180005,22.305645,20.40
                    114.180007,22.305653,20.40
                    114.180009,22.305660,20.00
                    114.180016,22.305664,20.10
                    114.180022,22.305668,20.20
                    114.180029,22.305673,20.30
                    114.180035,22.305679,20.30
                    114.180043,22.305684,20.30
                    114.180050,22.305690,20.30
                    114.180058,22.305694,20.20
                    114.180065,22.305699,20.20
                    114.180073,22.305703,20.00
                    114.180080,22.305709,19.90
                    114.180088,22.305715,20.00
                    114.180095,22.305721,19.80
                    114.180102,22.305727,19.80
                    114.180109,22.305732,19.70
                    114.180115,22.305738,19.50
                    114.180122,22.305744,19.40
                    114.180130,22.305752,19.30
                    114.180136,22.305759,19.30
                    114.180141,22.305766,19.10
                    114.180149,22.305770,19.20
                    114.180157,22.305773,19.20
                    114.180164,22.305777,19.20
                    114.180173,22.305783,19.30
                    114.180181,22.305787,19.20
                    114.180190,22.305793,19.10
                    114.180199,22.305798,19.10
                    114.180207,22.305804,19.10
                    114.180216,22.305808,19.10
                    114.180225,22.305812,19.00
                    114.180234,22.305816,18.90
                    114.180243,22.305820,18.90
                    114.180253,22.305824,19.00
                    114.180263,22.305827,18.80
                    114.180274,22.305827,18.70
                    114.180284,22.305826,18.50
                    114.180294,22.305821,18.40
                    114.180303,22.305816,18.20
                    114.180311,22.305811,18.10
                    114.180319,22.305806,18.10
                    114.180326,22.305801,18.20
                    114.180332,22.305794,18.00
                    114.180338,22.305787,17.90
                    114.180343,22.305780,17.80
                    114.180347,22.305773,17.80
                    114.180350,22.305766,17.70
                    114.180354,22.305757,17.60
                    114.180355,22.305747,17.80
                    114.180356,22.305738,17.80
                    114.180358,22.305729,17.70
                    114.180357,22.305718,17.50
                    114.180354,22.305709,17.40
                    114.180349,22.305702,17.40
                    114.180343,22.305700,17.30
                    114.180339,22.305699,17.40
                    114.180336,22.305699,17.70
                    114.180333,22.305699,17.90
                    114.180331,22.305697,17.90
                    114.180327,22.305695,18.10
                    114.180325,22.305694,18.20
                    114.180323,22.305693,18.40
                    114.180321,22.305691,18.60
                    114.180318,22.305690,18.60
                    114.180315,22.305688,18.80
                    114.180310,22.305687,19.10
                    114.180307,22.305685,19.10
                    114.180302,22.305683,19.10
                    114.180297,22.305680,19.20
                    114.180292,22.305678,19.20
                    114.180287,22.305676,19.50
                    114.180282,22.305675,19.60
                    114.180278,22.305673,19.70
                    114.180273,22.305670,19.90
                    114.180266,22.305667,20.00
                    114.180259,22.305664,20.10
                    114.180253,22.305661,20.10
                    114.180246,22.305657,20.20
                    114.180239,22.305654,20.40
                    114.180231,22.305651,20.50
                    114.180223,22.305648,20.50
                    114.180216,22.305644,20.50
                    114.180208,22.305641,20.50
                    114.180200,22.305638,20.70
                    114.180192,22.305635,20.70
                    114.180184,22.305631,20.70
                    114.180176,22.305628,20.60
                    114.180169,22.305624,20.50
                    114.180161,22.305621,20.60
                    114.180154,22.305618,20.60
                    114.180146,22.305616,20.60
                    114.180136,22.305613,20.60
                    114.180128,22.305610,20.50
                    114.180120,22.305608,20.50
                    114.180111,22.305606,20.60
                    114.180103,22.305605,20.50
                    114.180095,22.305606,20.60
                    114.180088,22.305609,20.60
                    114.180083,22.305614,20.50
                </coordinates>
            </LineString>
        </Placemark>
    </Document>
</kml>